Botanical Name,Street,Latitude,Longitude
PLATANUS X ACERIFOLIA,PARK AVE SOUTH,42.82611585,-78.83301215
PLATANUS X ACERIFOLIA,PARK AVE SOUTH,42.82615005,-78.83335164
PLATANUS X ACERIFOLIA,PARK AVE SOUTH,42.82619969,-78.83381578
PLATANUS X ACERIFOLIA,PARK AVE SOUTH,42.8262605,-78.83396434
ZELKOVA SERRATA,PARK AVE SOUTH,42.82633335,-78.83402905
ZELKOVA SERRATA,PARK AVE SOUTH,42.82633619,-78.83422994
SYRINGA RETICULATA,PARK AVE SOUTH,42.82639852,-78.83418899
SYRINGA RETICULATA,PARK AVE SOUTH,42.82641534,-78.83402315
ULMUS SPP,PARK AVE SOUTH,42.82642367,-78.8339306
ZELKOVA SERRATA,PARK AVE SOUTH,42.82644175,-78.83415906
ZELKOVA SERRATA,PARK AVE SOUTH,42.82645788,-78.83401934
ZELKOVA SERRATA,PARK AVE SOUTH,42.82649704,-78.83397798
CERCIS CANADENSIS,PARK AVE SOUTH,42.82651926,-78.83411273
CERCIS CANADENSIS,PARK AVE SOUTH,42.82654747,-78.83399181
ULMUS CARPINIFOLIA,PARK AVE SOUTH,42.82655342,-78.8342328
CERCIS CANADENSIS,PARK AVE SOUTH,42.82658305,-78.83409519
VACANT,PARK AVE SOUTH,42.82665432,-78.83390534
ULMUS CARPINIFOLIA,PARK AVE SOUTH,42.82667551,-78.83423632
ULMUS RUBRA,PARK AVE SOUTH,42.82686735,-78.83384334
CARYA GLABRA,PARK AVE SOUTH,42.82688346,-78.82687704
FRAXINUS AMERICANA,PARK AVE SOUTH,42.82688366,-78.82451476
ACER PLATANOIDES,PARK AVE SOUTH,42.82689689,-78.82432274
ACER PLATANOIDES,PARK AVE SOUTH,42.82690052,-78.82432597
JUGLANS NIGRA,PARK AVE SOUTH,42.82690278,-78.82433885
PLATANUS X ACERIFOLIA,PARK AVE SOUTH,42.82690616,-78.82656314
ACER PLATANOIDES,PARK AVE SOUTH,42.82690753,-78.82434006
PLATANUS X ACERIFOLIA,PARK AVE SOUTH,42.82690943,-78.82659832
VACANT,PARK AVE SOUTH,42.82691647,-78.82670423
VACANT,PARK AVE SOUTH,42.82691765,-78.82670474
ACER PLATANOIDES,PARK AVE SOUTH,42.82691862,-78.8243144
PINUS STROBUS,PARK AVE SOUTH,42.82691952,-78.82771931
PLATANUS X ACERIFOLIA,PARK AVE SOUTH,42.8269196,-78.82656119
ACER PLATANOIDES,PARK AVE SOUTH,42.82692258,-78.82430129999999
ACER PLATANOIDES,PARK AVE SOUTH,42.82692301,-78.82455178
PINUS STROBUS,PARK AVE SOUTH,42.8269232,-78.82514506
PINUS STROBUS,PARK AVE SOUTH,42.82693011,-78.82559681
TSUGA CANADENSIS,PARK AVE SOUTH,42.82693313,-78.82798444
CORNUS MAS,PARK AVE SOUTH,42.82693385,-78.8257567
PINUS STROBUS,PARK AVE SOUTH,42.82693386,-78.82522435
CORNUS MAS,PARK AVE SOUTH,42.82693614,-78.82579567
UNKNOWN TREE,PARK AVE SOUTH,42.82693669,-78.8262776
PINUS PALUSTRIS,PARK AVE SOUTH,42.8269391,-78.82739992
VACANT,PARK AVE SOUTH,42.82693982,-78.82531411
PINUS STROBUS,PARK AVE SOUTH,42.82694224,-78.82779696
FRAXINUS PENNSYLVANICA,PARK AVE SOUTH,42.82694296,-78.82702381
VACANT,PARK AVE SOUTH,42.82694467,-78.8250877
VACANT,PARK AVE SOUTH,42.82695087,-78.82547487
CORNUS MAS,PARK AVE SOUTH,42.82695686,-78.82595254
VACANT,PARK AVE SOUTH,42.82696091,-78.8273557
PINUS NIGRA,PARK AVE SOUTH,42.82696255,-78.82540269
PINUS NIGRA,PARK AVE SOUTH,42.826963299999996,-78.82792187
CORNUS MAS,PARK AVE SOUTH,42.82696506,-78.82574957
CORNUS MAS,PARK AVE SOUTH,42.82696515,-78.82598872
VACANT,PARK AVE SOUTH,42.82696534,-78.82588151
VACANT,PARK AVE SOUTH,42.82696604,-78.82588108
PINUS STROBUS,PARK AVE SOUTH,42.82696891,-78.82554951
FRAXINUS AMERICANA,PARK AVE SOUTH,42.82697184,-78.82592464
PINUS NIGRA,PARK AVE SOUTH,42.82697185,-78.82804054
VACANT,PARK AVE SOUTH,42.82697316,-78.82790465
JUGLANS NIGRA,PARK AVE SOUTH,42.82697469,-78.82723308
VACANT,PARK AVE SOUTH,42.82697571,-78.82521003
GINKGO BILOBA,PARK AVE SOUTH,42.8269761,-78.82425067
GINKGO BILOBA,PARK AVE SOUTH,42.82697725,-78.82430146
PINUS STROBUS,PARK AVE SOUTH,42.82697832,-78.82503267
PINUS STROBUS,PARK AVE SOUTH,42.82697837,-78.82563964
PINUS STROBUS,PARK AVE SOUTH,42.826986700000006,-78.82514632
PINUS NIGRA,PARK AVE SOUTH,42.82698776,-78.8254392
PINUS NIGRA,PARK AVE SOUTH,42.82698973,-78.82538541
PINUS STROBUS,PARK AVE SOUTH,42.82699470000001,-78.82753708
MORUS RUBRA,PARK AVE SOUTH,42.82699585,-78.8277269
PINUS NIGRA,PARK AVE SOUTH,42.82701307,-78.82767966
PINUS PALUSTRIS,PARK AVE SOUTH,42.82701605,-78.82773181
FRAXINUS PENNSYLVANICA,PARK AVE SOUTH,42.82702311,-78.82710932
PINUS NIGRA,PARK AVE SOUTH,42.82702986,-78.82763427
PICEA PUNGENS,PARK AVE SOUTH,42.82704388,-78.82561085
PICEA PUNGENS,PARK AVE SOUTH,42.82704573,-78.82566431
PICEA PUNGENS,PARK AVE SOUTH,42.82704871,-78.82526548
PICEA ABIES,PARK AVE SOUTH,42.82705047,-78.82531988
PICEA PUNGENS,PARK AVE SOUTH,42.8270573,-78.82517558
ACER SACCHARINUM,PARK AVE SOUTH,42.82705823,-78.82508625
PINUS STROBUS,PARK AVE SOUTH,42.82706065,-78.82792839
QUERCUS RUBRA,PARK AVE SOUTH,42.82707774,-78.82616721
PICEA PUNGENS,PARK AVE SOUTH,42.82708562,-78.82566552
VACANT,PARK AVE SOUTH,42.8270919,-78.82514262
PINUS SYLVESTRIS,PARK AVE SOUTH,42.82709268,-78.82507123
FRAXINUS AMERICANA,PARK AVE SOUTH,42.82709344,-78.83018534
FRAXINUS AMERICANA,PARK AVE SOUTH,42.82713253,-78.8242372
QUERCUS RUBRA,PARK AVE SOUTH,42.82714988,-78.82547898
MALUS SPP,PARK AVE SOUTH,42.82717203,-78.82476729
QUERCUS RUBRA,PARK AVE SOUTH,42.82721429,-78.82523462
JUGLANS NIGRA,PARK AVE SOUTH,42.82722519,-78.82890663
FRAXINUS AMERICANA,PARK AVE SOUTH,42.82722565,-78.82418921
ULMUS RUBRA,PARK AVE SOUTH,42.82722572,-78.83396372
QUERCUS RUBRA,PARK AVE SOUTH,42.82722632,-78.82792604
JUGLANS NIGRA,PARK AVE SOUTH,42.82725861,-78.82878054
QUERCUS RUBRA,PARK AVE SOUTH,42.82726113,-78.8272503
VACANT,PARK AVE SOUTH,42.82727038,-78.82939252
JUGLANS NIGRA,PARK AVE SOUTH,42.82727656,-78.82868723
JUGLANS NIGRA,PARK AVE SOUTH,42.82727845,-78.82895993
JUGLANS NIGRA,PARK AVE SOUTH,42.82729329,-78.82884841
QUERCUS RUBRA,PARK AVE SOUTH,42.82731029999999,-78.82794275
MAGNOLIA SPP,PARK AVE SOUTH,42.82732207,-78.82432548
QUERCUS RUBRA,PARK AVE SOUTH,42.82734176,-78.82739561
CARYA GLABRA,PARK AVE SOUTH,42.82736158,-78.82896718
PRUNUS SERRULATA 'KWANZAN',PARK AVE SOUTH,42.8273658,-78.82417089
LIQUIDAMBAR STRYACIFLUA,PARK AVE SOUTH,42.82737354,-78.8286552
CATALPA SPECIOSA,PARK AVE SOUTH,42.82737995,-78.82445507
QUERCUS RUBRA,PARK AVE SOUTH,42.82739224,-78.82776451
QUERCUS MACROCARPA,PARK AVE SOUTH,42.827394399999996,-78.82804297
QUERCUS RUBRA,PARK AVE SOUTH,42.82741455,-78.83056182
LIQUIDAMBAR STRYACIFLUA,PARK AVE SOUTH,42.82741529,-78.82878943
QUERCUS RUBRA,PARK AVE SOUTH,42.82741987,-78.83011983
QUERCUS RUBRA,PARK AVE SOUTH,42.82742196,-78.83043953
QUERCUS RUBRA,PARK AVE SOUTH,42.82742255,-78.83067357
QUERCUS RUBRA,PARK AVE SOUTH,42.82742349,-78.83023407
QUERCUS RUBRA,PARK AVE SOUTH,42.82742775,-78.83002464
QUERCUS RUBRA,PARK AVE SOUTH,42.82742826,-78.83033726
QUERCUS MACROCARPA,PARK AVE SOUTH,42.82743133,-78.82822689
QUERCUS RUBRA,PARK AVE SOUTH,42.82743546,-78.83080655
VACANT,PARK AVE SOUTH,42.82743553,-78.82989271
QUERCUS RUBRA,PARK AVE SOUTH,42.82744335,-78.831125
CELTIS OCCIDENTALIS,PARK AVE SOUTH,42.82744774,-78.83390215
LIQUIDAMBAR STRYACIFLUA,PARK AVE SOUTH,42.82745009,-78.82976657
QUERCUS MACROCARPA,PARK AVE SOUTH,42.82745219,-78.83100077
QUERCUS LAEVIS,PARK AVE SOUTH,42.82745278,-78.83138715
VACANT,PARK AVE SOUTH,42.82745747,-78.82961083
VACANT,PARK AVE SOUTH,42.82745853,-78.82961026
GINKGO BILOBA,PARK AVE SOUTH,42.82745934,-78.82937648
QUERCUS RUBRA,PARK AVE SOUTH,42.82746696,-78.82949455
QUERCUS RUBRA,PARK AVE SOUTH,42.82747107,-78.83151925
QUERCUS MACROCARPA,PARK AVE SOUTH,42.82747149,-78.82905434
PRUNUS SERRULATA 'KWANZAN',PARK AVE SOUTH,42.82747245,-78.82417645
QUERCUS RUBRA,PARK AVE SOUTH,42.82747698,-78.82925856
QUERCUS MACROCARPA,PARK AVE SOUTH,42.82748506,-78.83166104
QUERCUS MACROCARPA,PARK AVE SOUTH,42.82748818,-78.83275541
CELTIS OCCIDENTALIS,PARK AVE SOUTH,42.82749009,-78.83390768
QUERCUS RUBRA,PARK AVE SOUTH,42.8274947,-78.83182611
VACANT,PARK AVE SOUTH,42.82856286,-78.82723682
CELTIS OCCIDENTALIS,PARK AVE SOUTH,42.82749931,-78.83389102
PICEA PUNGENS,PARK AVE SOUTH,42.82750595,-78.82440051
QUERCUS MACROCARPA,PARK AVE SOUTH,42.82751419,-78.82719744
JUGLANS NIGRA,PARK AVE SOUTH,42.82752215,-78.83381873
QUERCUS MACROCARPA,PARK AVE SOUTH,42.82752441,-78.83196602
QUERCUS MACROCARPA,PARK AVE SOUTH,42.82753123,-78.83262454
VACANT,PARK AVE SOUTH,42.82753186,-78.83379726
VACANT,PARK AVE SOUTH,42.82753195,-78.83379821
QUERCUS RUBRA,PARK AVE SOUTH,42.82753487,-78.83250767
QUERCUS RUBRA,PARK AVE SOUTH,42.82754841,-78.83210397
QUERCUS RUBRA,PARK AVE SOUTH,42.82754932,-78.83234214
VACANT,PARK AVE SOUTH,42.8275674,-78.83382809
QUERCUS RUBRA,PARK AVE SOUTH,42.82758871,-78.82755861
VACANT,PARK AVE SOUTH,42.82760065,-78.83370167
VACANT,PARK AVE SOUTH,42.82760949,-78.83379058
VACANT,PARK AVE SOUTH,42.8276098,-78.83379025
MORUS ALBA,PARK AVE SOUTH,42.82761418,-78.82768216
MORUS ALBA,PARK AVE SOUTH,42.82761457,-78.8278555
ROBINIA PSEUDOACACIA,PARK AVE SOUTH,42.82763057,-78.82888075
STUMP,PARK AVE SOUTH,42.82763239,-78.83089567
ROBINIA PSEUDOACACIA,PARK AVE SOUTH,42.82763729,-78.82895713
ULMUS SPP,PARK AVE SOUTH,42.82763762,-78.82865787
JUGLANS NIGRA,PARK AVE SOUTH,42.82764035,-78.83359749
ROBINIA PSEUDOACACIA,PARK AVE SOUTH,42.82764183,-78.82893054
ROBINIA PSEUDOACACIA,PARK AVE SOUTH,42.82764183,-78.82892544
ROBINIA PSEUDOACACIA,PARK AVE SOUTH,42.82764579,-78.82897813
ROBINIA PSEUDOACACIA,PARK AVE SOUTH,42.82764592,-78.82885585
ULMUS CARPINIFOLIA,PARK AVE SOUTH,42.82765043,-78.83014283
ULMUS CARPINIFOLIA,PARK AVE SOUTH,42.82765174,-78.83070862
RHAMNUS CATHARTICA,PARK AVE SOUTH,42.82765272,-78.82898759999999
STUMP,PARK AVE SOUTH,42.82765478,-78.83102645
ULMUS CARPINIFOLIA,PARK AVE SOUTH,42.8276608,-78.8304657
STUMP,PARK AVE SOUTH,42.82766281,-78.83079132
ULMUS CARPINIFOLIA,PARK AVE SOUTH,42.827663799999996,-78.83058383
ROBINIA PSEUDOACACIA,PARK AVE SOUTH,42.827664399999996,-78.82872893
ROBINIA PSEUDOACACIA,PARK AVE SOUTH,42.82766526,-78.82861873
ULMUS CARPINIFOLIA,PARK AVE SOUTH,42.8276666,-78.83036232
ULMUS CARPINIFOLIA,PARK AVE SOUTH,42.82766726,-78.82980192
QUERCUS RUBRA,PARK AVE SOUTH,42.82766749,-78.82850226
CRATAEGUS SPP,PARK AVE SOUTH,42.82766792,-78.82895513
ULMUS CARPINIFOLIA,PARK AVE SOUTH,42.82766988,-78.83024426
VACANT,PARK AVE SOUTH,42.82767043,-78.82882883
VACANT,PARK AVE SOUTH,42.82767083,-78.82882985
ROBINIA PSEUDOACACIA,PARK AVE SOUTH,42.82767118,-78.82877177
JUGLANS NIGRA,PARK AVE SOUTH,42.82767376,-78.82868264
ROBINIA PSEUDOACACIA,PARK AVE SOUTH,42.82767759,-78.8286185
ULMUS CARPINIFOLIA,PARK AVE SOUTH,42.8276802,-78.83125082
VACANT,PARK AVE SOUTH,42.82768025,-78.82943893
ULMUS CARPINIFOLIA,PARK AVE SOUTH,42.82768249,-78.82953654
QUERCUS RUBRA,PARK AVE SOUTH,42.82768673,-78.82822204
VACANT,PARK AVE SOUTH,42.8276875,-78.82928697
VACANT,PARK AVE SOUTH,42.82768972,-78.83373415
ULMUS CARPINIFOLIA,PARK AVE SOUTH,42.82768984,-78.83002544
ULMUS CARPINIFOLIA,PARK AVE SOUTH,42.82768988,-78.83144958
VACANT,PARK AVE SOUTH,42.82769045,-78.83373541
CRATAEGUS SPP,PARK AVE SOUTH,42.8276918,-78.82713786
ULMUS CARPINIFOLIA,PARK AVE SOUTH,42.8276925,-78.83155832
ROBINIA PSEUDOACACIA,PARK AVE SOUTH,42.82769599,-78.82863293
ULMUS CARPINIFOLIA,PARK AVE SOUTH,42.82769611,-78.82988948
ROBINIA PSEUDOACACIA,PARK AVE SOUTH,42.82770025,-78.82886489
VACANT,PARK AVE SOUTH,42.82770054,-78.82886622
QUERCUS RUBRA,PARK AVE SOUTH,42.8277013,-78.82896883
FAGUS SYLVATICA,PARK AVE SOUTH,42.82770345,-78.82791137
QUERCUS RUBRA,PARK AVE SOUTH,42.82770405,-78.82922473
GINKGO BILOBA,PARK AVE SOUTH,42.82770908,-78.83349161
ULMUS RUBRA,PARK AVE SOUTH,42.82771273,-78.83376171
ROBINIA PSEUDOACACIA,PARK AVE SOUTH,42.82771991,-78.82886278
JUGLANS NIGRA,PARK AVE SOUTH,42.82773521,-78.83115656
VACANT,PARK AVE SOUTH,42.8277388,-78.82882988
VACANT,PARK AVE SOUTH,42.82773903,-78.8288291
QUERCUS RUBRA,PARK AVE SOUTH,42.82774843,-78.82917163
CARYA SPP,PARK AVE SOUTH,42.82775266,-78.82863564
QUERCUS RUBRA,PARK AVE SOUTH,42.82775458,-78.82765675
VACANT,PARK AVE SOUTH,42.82776363,-78.83369249
VACANT,PARK AVE SOUTH,42.82776379,-78.83369134
ULMUS CARPINIFOLIA,PARK AVE SOUTH,42.82777283,-78.8337993
QUERCUS RUBRA,PARK AVE SOUTH,42.82777532,-78.82815017
CRATAEGUS SPP,PARK AVE SOUTH,42.8277759,-78.82897507
ULMUS CARPINIFOLIA,PARK AVE SOUTH,42.82778784,-78.83223689
QUERCUS BICOLOR,PARK AVE SOUTH,42.82779444,-78.82444389
QUERCUS RUBRA,PARK AVE SOUTH,42.82779683,-78.82807126
ULMUS CARPINIFOLIA,PARK AVE SOUTH,42.82780075,-78.83234896
VACANT,PARK AVE SOUTH,42.82782186,-78.83367804
VACANT,PARK AVE SOUTH,42.82782187,-78.83367802
FAGUS SYLVATICA,PARK AVE SOUTH,42.82783084,-78.82760505
GINKGO BILOBA,PARK AVE SOUTH,42.82783178,-78.83347592
VACANT,PARK AVE SOUTH,42.82784143,-78.83370476
VACANT,PARK AVE SOUTH,42.82784153,-78.8337043
FAGUS SYLVATICA,PARK AVE SOUTH,42.8278453,-78.82795408
RHAMNUS CATHARTICA,PARK AVE SOUTH,42.82785076,-78.83226789
ACER PLATANOIDES,PARK AVE SOUTH,42.82785435,-78.83040441
VACANT,PARK AVE SOUTH,42.8278597,-78.82757329
GINKGO BILOBA,PARK AVE SOUTH,42.82786008,-78.83360224
VACANT,PARK AVE SOUTH,42.8278607,-78.82757261
FAGUS SYLVATICA,PARK AVE SOUTH,42.82786539,-78.82784306
VACANT,PARK AVE SOUTH,42.82786621,-78.82973099
VACANT,PARK AVE SOUTH,42.82874226,-78.82726426
ULMUS CARPINIFOLIA,PARK AVE SOUTH,42.82787899,-78.83276334
VACANT,PARK AVE SOUTH,42.827892,-78.82750307
ACER SPP,PARK AVE SOUTH,42.82789639,-78.82934129
MAGNOLIA SPP,PARK AVE SOUTH,42.82789759,-78.82426893
STUMP,PARK AVE SOUTH,42.8279117,-78.83186074
ULMUS CARPINIFOLIA,PARK AVE SOUTH,42.82791656,-78.83286977
VACANT,PARK AVE SOUTH,42.82792648,-78.82973605
LIQUIDAMBAR STRYACIFLUA,PARK AVE SOUTH,42.82792979,-78.82921052
JUGLANS NIGRA,PARK AVE SOUTH,42.82793055,-78.83165132
ACER PLATANOIDES,PARK AVE SOUTH,42.82793587,-78.82999455
ACER PLATANOIDES,PARK AVE SOUTH,42.82795249,-78.8303773
ACER PLATANOIDES,PARK AVE SOUTH,42.82795366,-78.83021685
PINUS NIGRA,PARK AVE SOUTH,42.82795402,-78.82754441
QUERCUS MACROCARPA,PARK AVE SOUTH,42.82795967,-78.82943373
CRATAEGUS SPP,PARK AVE SOUTH,42.82799931,-78.82902901
ACER PLATANOIDES,PARK AVE SOUTH,42.828012,-78.83020102
JUGLANS NIGRA,PARK AVE SOUTH,42.82802771,-78.82895833
ACER PLATANOIDES,PARK AVE SOUTH,42.828031,-78.83036751
CARYA GLABRA,PARK AVE SOUTH,42.82803487,-78.82885381
VACANT,PARK AVE SOUTH,42.82804668,-78.82993855
VACANT,PARK AVE SOUTH,42.82804671,-78.82993749
JUGLANS NIGRA,PARK AVE SOUTH,42.82804704,-78.8289976
VACANT,PARK AVE SOUTH,42.82804713,-78.82717888
VACANT,PARK AVE SOUTH,42.82804736,-78.82717768
CATALPA SPECIOSA,PARK AVE SOUTH,42.82805553,-78.83306368
ACER PLATANOIDES,PARK AVE SOUTH,42.82805569,-78.83016034
ACER PLATANOIDES,PARK AVE SOUTH,42.82805917,-78.83002174
ACER PLATANOIDES,PARK AVE SOUTH,42.82806032,-78.83025676
VACANT,PARK AVE SOUTH,42.82808574,-78.83320308
CARYA CORDIFORMIS,PARK AVE SOUTH,42.82809694,-78.83236422
SALIX NIGRA,PARK AVE SOUTH,42.82810371,-78.82900140000001
ACER SACCHARINUM,PARK AVE SOUTH,42.82810944,-78.83013731
ACER PLATANOIDES,PARK AVE SOUTH,42.82811134,-78.83015035
VACANT,PARK AVE SOUTH,42.82811895,-78.82875108
STUMP,PARK AVE SOUTH,42.82812287,-78.82731109999999
UNKNOWN TREE,PARK AVE SOUTH,42.82812368,-78.82730965
PINUS NIGRA,PARK AVE SOUTH,42.82812528,-78.82753565
ACER NIGRUM,PARK AVE SOUTH,42.8281401,-78.82884278
OSTRYA VIRGINIANA,PARK AVE SOUTH,42.82814748,-78.82842863
ACER PLATANOIDES,PARK AVE SOUTH,42.82814942,-78.83030941
FRAXINUS PENNSYLVANICA,PARK AVE SOUTH,42.82815607,-78.8275854
ACER SACCHARINUM,PARK AVE SOUTH,42.82815986,-78.82995282
VACANT,PARK AVE SOUTH,42.82816038,-78.82756047
VACANT,PARK AVE SOUTH,42.82816156,-78.82755957
LIQUIDAMBAR STRYACIFLUA,PARK AVE SOUTH,42.82816268,-78.82913524
FAGUS SYLVATICA,PARK AVE SOUTH,42.828169,-78.82841280000001
ACER PLATANOIDES,PARK AVE SOUTH,42.82817778,-78.83024094
FRAXINUS PENNSYLVANICA,PARK AVE SOUTH,42.82817849,-78.82710578
QUERCUS RUBRA,PARK AVE SOUTH,42.82817859,-78.82731313
FRAXINUS PENNSYLVANICA,PARK AVE SOUTH,42.82818318,-78.82763898
PINUS NIGRA,PARK AVE SOUTH,42.82818404,-78.82720202
CRATAEGUS SPP,PARK AVE SOUTH,42.82818893,-78.8289512
CRATAEGUS SPP,PARK AVE SOUTH,42.82819184,-78.82705648
JUGLANS NIGRA,PARK AVE SOUTH,42.8281928,-78.82889889
JUGLANS NIGRA,PARK AVE SOUTH,42.82819449,-78.82898986
ACER PLATANOIDES,PARK AVE SOUTH,42.82819683,-78.83333855
MORUS ALBA,PARK AVE SOUTH,42.82819953,-78.82755782
CRATAEGUS SPP,PARK AVE SOUTH,42.82820678,-78.82894516
FAGUS SYLVATICA,PARK AVE SOUTH,42.82822349,-78.82844883
MAGNOLIA ACUMINATA,PARK AVE SOUTH,42.82822864,-78.82716562
ACER TATARICUM,PARK AVE SOUTH,42.82823417,-78.8317435
FRAXINUS PENNSYLVANICA,PARK AVE SOUTH,42.82823621,-78.82748203
FRAXINUS PENNSYLVANICA,PARK AVE SOUTH,42.82823782,-78.82740109
QUERCUS RUBRA,PARK AVE SOUTH,42.82824073,-78.82849581
CRATAEGUS SPP,PARK AVE SOUTH,42.82824086,-78.82861505
ACER TATARICUM,PARK AVE SOUTH,42.82824234,-78.83185832
CRATAEGUS SPP,PARK AVE SOUTH,42.82824421,-78.83336758
STUMP,PARK AVE SOUTH,42.8282665,-78.83036245
FRAXINUS PENNSYLVANICA,PARK AVE SOUTH,42.82826719,-78.82762282
STUMP,PARK AVE SOUTH,42.82827442,-78.83027779999999
VACANT,PARK AVE SOUTH,42.82827826,-78.82863146
MAGNOLIA STELLATA,PARK AVE SOUTH,42.82828013,-78.82416798
TILIA CORDATA,PARK AVE SOUTH,42.82828019,-78.82882084
CORNUS SPP,PARK AVE SOUTH,42.82828284,-78.82926226
VACANT,PARK AVE SOUTH,42.82828297,-78.82924196
ACER TATARICUM,PARK AVE SOUTH,42.82828327,-78.83157479
PINUS NIGRA,PARK AVE SOUTH,42.82828334,-78.82751642
CORNUS SPP,PARK AVE SOUTH,42.82828576,-78.82925935
LIRIODENDRON TULIPIFERA,PARK AVE SOUTH,42.82828736,-78.82741795
VACANT,PARK AVE SOUTH,42.82828866,-78.83168437
VACANT,PARK AVE SOUTH,42.82828989,-78.83168309999999
MAGNOLIA STELLATA,PARK AVE SOUTH,42.82829007,-78.82423886
MAGNOLIA ACUMINATA,PARK AVE SOUTH,42.82829148,-78.82716500000001
JUGLANS NIGRA,PARK AVE SOUTH,42.8282931,-78.82920842
CORNUS SPP,PARK AVE SOUTH,42.82829767,-78.82923553
QUERCUS RUBRA,PARK AVE SOUTH,42.82830031,-78.82976753
CARYA OVATA,PARK AVE SOUTH,42.82830079,-78.82867023
JUGLANS NIGRA,PARK AVE SOUTH,42.82830258,-78.82921424
PINUS NIGRA,PARK AVE SOUTH,42.82831021,-78.82754287
VACANT,PARK AVE SOUTH,42.82831533,-78.8287941
QUERCUS PALUSTRIS,PARK AVE SOUTH,42.82831578,-78.82980994
VACANT,PARK AVE SOUTH,42.82831631,-78.82879285
PINUS RESINOSA,PARK AVE SOUTH,42.82832658,-78.83331058
CATALPA SPECIOSA,PARK AVE SOUTH,42.82833478,-78.83349687
MAGNOLIA STELLATA,PARK AVE SOUTH,42.82833733,-78.82416591
GYMNOCLADUS DIOICUS,PARK AVE SOUTH,42.82833836,-78.83138066
QUERCUS MACROCARPA,PARK AVE SOUTH,42.82833902,-78.82967906
VACANT,PARK AVE SOUTH,42.82833964,-78.83151555
VACANT,PARK AVE SOUTH,42.82834046,-78.83151537
ACER PLATANOIDES,PARK AVE SOUTH,42.82835116,-78.82969843
MAGNOLIA ACUMINATA,PARK AVE SOUTH,42.82835279,-78.82946729
ACER SACCHARINUM,PARK AVE SOUTH,42.82835342,-78.83001096
FRAXINUS PENNSYLVANICA,PARK AVE SOUTH,42.82835851,-78.82760213
VACANT,PARK AVE SOUTH,42.82835924,-78.82879055
VACANT,PARK AVE SOUTH,42.82836057,-78.82879062
ACER PLATANOIDES,PARK AVE SOUTH,42.82836281,-78.83086464
VACANT,PARK AVE SOUTH,42.82836554,-78.82947902
ACER SACCHARINUM,PARK AVE SOUTH,42.82836566,-78.83013865
RHAMNUS CATHARTICA,PARK AVE SOUTH,42.82837316,-78.82893367
GYMNOCLADUS DIOICUS,PARK AVE SOUTH,42.82837869,-78.83126791
CARYA GLABRA,PARK AVE SOUTH,42.82837878,-78.82696752
SALIX DISCOLOR,PARK AVE SOUTH,42.82838542,-78.82684342
VACANT,PARK AVE SOUTH,42.82839055,-78.82943144
ACER PLATANOIDES,PARK AVE SOUTH,42.8283908,-78.83098969
PRUNUS SEROTINA,PARK AVE SOUTH,42.82839455,-78.82706743
LIQUIDAMBAR STRYACIFLUA,PARK AVE SOUTH,42.82839644,-78.82454527
LIRIODENDRON TULIPIFERA,PARK AVE SOUTH,42.82839737,-78.8271904
AILANTHUS ALTISSIMA,PARK AVE SOUTH,42.82840158,-78.82929694
FRAXINUS PENNSYLVANICA,PARK AVE SOUTH,42.82840189,-78.82762249
CORNUS SPP,PARK AVE SOUTH,42.82840546,-78.82941908
GYMNOCLADUS DIOICUS,PARK AVE SOUTH,42.82841241,-78.83135017
VACANT,PARK AVE SOUTH,42.82841302,-78.82760523
ACER PLATANOIDES,PARK AVE SOUTH,42.82841701,-78.82989495
ACER PLATANOIDES,PARK AVE SOUTH,42.82841953,-78.83341103
STUMP,PARK AVE SOUTH,42.82842041,-78.8332314
FRAXINUS PENNSYLVANICA,PARK AVE SOUTH,42.82842336,-78.8275802
GINKGO BILOBA,PARK AVE SOUTH,42.82842626,-78.8245904
FRAXINUS PENNSYLVANICA,PARK AVE SOUTH,42.82843031,-78.82758514
JUGLANS NIGRA,PARK AVE SOUTH,42.82843037,-78.82688722
CARYA GLABRA,PARK AVE SOUTH,42.82843124,-78.82889893
QUERCUS PALUSTRIS,PARK AVE SOUTH,42.82843142,-78.82979799
LIRIODENDRON TULIPIFERA,PARK AVE SOUTH,42.82843358,-78.82722503
VACANT,PARK AVE SOUTH,42.82844791,-78.82708953
QUERCUS MACROCARPA,PARK AVE SOUTH,42.82844933,-78.82936102
FRAXINUS PENNSYLVANICA,PARK AVE SOUTH,42.82844947,-78.82697803
VACANT,PARK AVE SOUTH,42.82845257,-78.82752669999999
QUERCUS MACROCARPA,PARK AVE SOUTH,42.82845328,-78.82886599
JUGLANS NIGRA,PARK AVE SOUTH,42.82845375,-78.82919969
ACER PLATANOIDES,PARK AVE SOUTH,42.82845456,-78.83086049
VACANT,PARK AVE SOUTH,42.82846096,-78.83124762
VACANT,PARK AVE SOUTH,42.82846153,-78.83124808
VACANT,PARK AVE SOUTH,42.82847018,-78.82900476
VACANT,PARK AVE SOUTH,42.82847169,-78.82749603
FRAXINUS PENNSYLVANICA,PARK AVE SOUTH,42.82847171,-78.82695456
VACANT,PARK AVE SOUTH,42.828494,-78.82913207
VACANT,PARK AVE SOUTH,42.82849611,-78.83410872
ROBINIA PSEUDOACACIA,PARK AVE SOUTH,42.82849971,-78.82925789
CARYA GLABRA,PARK AVE SOUTH,42.82850273,-78.82881559
GINKGO BILOBA,PARK AVE SOUTH,42.82850396,-78.82464562
PINUS RESINOSA,PARK AVE SOUTH,42.82850587,-78.83335297
FRAXINUS PENNSYLVANICA,PARK AVE SOUTH,42.82851088,-78.82719404
STUMP,PARK AVE SOUTH,42.82851215,-78.82448309
PINUS RESINOSA,PARK AVE SOUTH,42.82851753,-78.83349577
PINUS NIGRA,PARK AVE SOUTH,42.82852706,-78.82748983
ACER SACCHARINUM,PARK AVE SOUTH,42.82852745,-78.83010721
VACANT,PARK AVE SOUTH,42.82853624,-78.83427392
FRAXINUS PENNSYLVANICA,PARK AVE SOUTH,42.82853737,-78.82884724
LIQUIDAMBAR STRYACIFLUA,PARK AVE SOUTH,42.82854373,-78.8246993
FRAXINUS PENNSYLVANICA,PARK AVE SOUTH,42.82854922,-78.82682283
QUERCUS ALBA,PARK AVE SOUTH,42.82855093,-78.82934041
FRAXINUS PENNSYLVANICA,PARK AVE SOUTH,42.82855116,-78.82688653
BETULA NIGRA,PARK AVE SOUTH,42.82855219,-78.83034214
CATALPA SPECIOSA,PARK AVE SOUTH,42.82855759,-78.83324116
PHELLODENDRON AMURENSE,PARK AVE SOUTH,42.82855769,-78.8307662
FRAXINUS PENNSYLVANICA,PARK AVE SOUTH,42.82856027,-78.82687229
STUMP,PARK AVE SOUTH,42.82856198,-78.82723737
PHELLODENDRON AMURENSE,PARK AVE SOUTH,42.82856206,-78.83088787
RHAMNUS CATHARTICA,PARK AVE SOUTH,42.82856388,-78.82884444
FRAXINUS PENNSYLVANICA,PARK AVE SOUTH,42.82856754,-78.8268347
VACANT,PARK AVE SOUTH,42.82856861,-78.83417535
LIRIODENDRON TULIPIFERA,PARK AVE SOUTH,42.82857773,-78.82677458
PINUS NIGRA,PARK AVE SOUTH,42.82858128,-78.8275085
AESCULUS HIPPOCASTANUM,PARK AVE SOUTH,42.82858266,-78.82908845
VACANT,PARK AVE SOUTH,42.82858429,-78.83383527
VACANT,PARK AVE SOUTH,42.82858559,-78.83383517
OSTRYA VIRGINIANA,PARK AVE SOUTH,42.82858726,-78.82716831
PLATANUS X ACERIFOLIA,PARK AVE SOUTH,42.82858867,-78.82421348
ACER PLATANOIDES,PARK AVE SOUTH,42.82858945,-78.8303314
VACANT,PARK AVE SOUTH,42.82858958,-78.82665147
GINKGO BILOBA,PARK AVE SOUTH,42.8285914,-78.82470918
ACER PLATANOIDES,PARK AVE SOUTH,42.82859303,-78.83028546
VACANT,PARK AVE SOUTH,42.82859985,-78.8267129
BETULA NIGRA,PARK AVE SOUTH,42.82860032,-78.82716575
FRAXINUS PENNSYLVANICA,PARK AVE SOUTH,42.82860515,-78.82749983
CATALPA SPECIOSA,PARK AVE SOUTH,42.82861034,-78.83345906
STUMP,PARK AVE SOUTH,42.82861092,-78.82748478
VACANT,PARK AVE SOUTH,42.82861173,-78.82748305
ACER PLATANOIDES,PARK AVE SOUTH,42.828619,-78.83375684
VACANT,PARK AVE SOUTH,42.82861942,-78.82901898
PINUS NIGRA,PARK AVE SOUTH,42.82862002,-78.82743486
VACANT,PARK AVE SOUTH,42.82862031,-78.82901738
VACANT,PARK AVE SOUTH,42.828814799999996,-78.82994322
QUERCUS RUBRA,PARK AVE SOUTH,42.82862174,-78.82931584
LIQUIDAMBAR STRYACIFLUA,PARK AVE SOUTH,42.82862423,-78.82972674
BETULA NIGRA,PARK AVE SOUTH,42.82863121,-78.82715949
VACANT,PARK AVE SOUTH,42.82863499,-78.8266267
VACANT,PARK AVE SOUTH,42.82864324,-78.82412587
ACER PLATANOIDES,PARK AVE SOUTH,42.82864341,-78.82987635
VACANT,PARK AVE SOUTH,42.82864354,-78.82412435
PHELLODENDRON AMURENSE,PARK AVE SOUTH,42.82864418,-78.83077765
AESCULUS HIPPOCASTANUM,PARK AVE SOUTH,42.82864655,-78.82937837
ROBINIA PSEUDOACACIA,PARK AVE SOUTH,42.82864826,-78.82926126
FAGUS SYLVATICA,PARK AVE SOUTH,42.82865157,-78.82704768
FRAXINUS PENNSYLVANICA,PARK AVE SOUTH,42.82865194,-78.82723768
STUMP,PARK AVE SOUTH,42.82865426,-78.83365189
ACER PLATANOIDES,PARK AVE SOUTH,42.82865465,-78.83385374
QUERCUS MACROCARPA,PARK AVE SOUTH,42.82865817,-78.82969442
BETULA NIGRA,PARK AVE SOUTH,42.82866064,-78.82718321
JUGLANS NIGRA,PARK AVE SOUTH,42.82866585,-78.82973459
VACANT,PARK AVE SOUTH,42.82867338,-78.82674312
VACANT,PARK AVE SOUTH,42.82868042,-78.83252423
ACER PLATANOIDES,PARK AVE SOUTH,42.82868221,-78.83230243
VACANT,PARK AVE SOUTH,42.82868264,-78.82909286
ACER PLATANOIDES,PARK AVE SOUTH,42.82868436,-78.83294915
VACANT,PARK AVE SOUTH,42.82868505,-78.82912744
CRATAEGUS SPP,PARK AVE SOUTH,42.82868525,-78.82741268
ACER PLATANOIDES,PARK AVE SOUTH,42.82868644,-78.83211164
VACANT,PARK AVE SOUTH,42.82868764,-78.82926222
STUMP,PARK AVE SOUTH,42.82868995,-78.83189948
VACANT,PARK AVE SOUTH,42.82869601,-78.82680125
VACANT,PARK AVE SOUTH,42.82869626,-78.83277868
ACER SACCHARINUM,PARK AVE SOUTH,42.82869863,-78.83008938
VACANT,PARK AVE SOUTH,42.82870058,-78.83427944
PINUS NIGRA,PARK AVE SOUTH,42.82870255,-78.82808991
ACER PLATANOIDES,PARK AVE SOUTH,42.82870743,-78.83030553
PINUS NIGRA,PARK AVE SOUTH,42.82870794,-78.82735582
CATALPA SPECIOSA,PARK AVE SOUTH,42.82871015,-78.83316379
VACANT,PARK AVE SOUTH,42.82871202,-78.82479776
VACANT,PARK AVE SOUTH,42.82871207,-78.82655648
PLATANUS X ACERIFOLIA,PARK AVE SOUTH,42.82871553,-78.82422815
BETULA NIGRA,PARK AVE SOUTH,42.82871616,-78.82707957
VACANT,PARK AVE SOUTH,42.82871731,-78.83425362
CRATAEGUS SPP,PARK AVE SOUTH,42.82871985,-78.82900982
VACANT,PARK AVE SOUTH,42.82872254,-78.82899863
MALUS SPP,PARK AVE SOUTH,42.82872716,-78.83347724
CARYA GLABRA,PARK AVE SOUTH,42.82872735,-78.83047134
BETULA NIGRA,PARK AVE SOUTH,42.82873046,-78.83031523
JUGLANS NIGRA,PARK AVE SOUTH,42.82873082,-78.82981319
PRUNUS SPP,PARK AVE SOUTH,42.82873212,-78.82903985
BETULA NIGRA,PARK AVE SOUTH,42.82873525,-78.827033
BETULA NIGRA,PARK AVE SOUTH,42.8287414,-78.83031535
MALUS SPP,PARK AVE SOUTH,42.82875612,-78.83333262
JUGLANS NIGRA,PARK AVE SOUTH,42.82875694,-78.8289029
PINUS NIGRA,PARK AVE SOUTH,42.82875723,-78.82723598
STUMP,PARK AVE SOUTH,42.82875779,-78.8301108
VACANT,PARK AVE SOUTH,42.82875962,-78.82965386
ACER PLATANOIDES,PARK AVE SOUTH,42.82876634,-78.82899459
VACANT,PARK AVE SOUTH,42.82876656,-78.82698745
ACER CAMPESTRE,PARK AVE SOUTH,42.82876665,-78.83169768
ACER PLATANOIDES,PARK AVE SOUTH,42.82877244,-78.82987414
ACER SACCHARUM,PARK AVE SOUTH,42.82877535,-78.82425679
VACANT,PARK AVE SOUTH,42.82877671,-78.83431858
VACANT,PARK AVE SOUTH,42.82878049,-78.82682458
MAGNOLIA STELLATA,PARK AVE SOUTH,42.82878337,-78.82432767
ACER PLATANOIDES,PARK AVE SOUTH,42.828784000000006,-78.83389286
ACER PLATANOIDES,PARK AVE SOUTH,42.82878865,-78.82901952
VACANT,PARK AVE SOUTH,42.82878878,-78.82988034
PINUS NIGRA,PARK AVE SOUTH,42.82879092,-78.82800222
FRAXINUS PENNSYLVANICA,PARK AVE SOUTH,42.82879191,-78.83006909
LIQUIDAMBAR STRYACIFLUA,PARK AVE SOUTH,42.82879267,-78.82484043
VACANT,PARK AVE SOUTH,42.82879775,-78.82991267
FRAXINUS PENNSYLVANICA,PARK AVE SOUTH,42.828798799999994,-78.83026498
CRATAEGUS SPP,PARK AVE SOUTH,42.828802200000005,-78.82981284
MAGNOLIA STELLATA,PARK AVE SOUTH,42.82880689,-78.82434147
ACER CAMPESTRE,PARK AVE SOUTH,42.82881058,-78.83154755
FRAXINUS PENNSYLVANICA,PARK AVE SOUTH,42.82881612,-78.82698570000001
VACANT,PARK AVE SOUTH,42.82881654,-78.82681845
LIRIODENDRON TULIPIFERA,PARK AVE SOUTH,42.82881823,-78.82428034
ACER PLATANOIDES,PARK AVE SOUTH,42.82881968,-78.82905090000001
VACANT,PARK AVE SOUTH,42.8288219,-78.82670685
MALUS SPP,PARK AVE SOUTH,42.82882312,-78.83355376
VACANT,PARK AVE SOUTH,42.82882313,-78.82988674
JUGLANS NIGRA,PARK AVE SOUTH,42.8288289,-78.82972671
LIRIODENDRON TULIPIFERA,PARK AVE SOUTH,42.82883046,-78.82433242
VACANT,PARK AVE SOUTH,42.82883299,-78.82664258
ACER SACCHARUM,PARK AVE SOUTH,42.82883881,-78.82420247
PINUS NIGRA,PARK AVE SOUTH,42.82884264,-78.82792509
ACER PLATANOIDES,PARK AVE SOUTH,42.82884534,-78.83388997
ACER SACCHARINUM,PARK AVE SOUTH,42.82884836,-78.83008203
VACANT,PARK AVE SOUTH,42.828850200000005,-78.82989067
MAGNOLIA STELLATA,PARK AVE SOUTH,42.82885067,-78.82432107
MALUS SPP,PARK AVE SOUTH,42.82885127,-78.83368370000001
VACANT,PARK AVE SOUTH,42.82885887,-78.82915339
VACANT,PARK AVE SOUTH,42.82886476,-78.83435615
VACANT,PARK AVE SOUTH,42.82886539,-78.82666469
AESCULUS HIPPOCASTANUM,PARK AVE SOUTH,42.828867200000005,-78.82959365
ACER SACCHARINUM,PARK AVE SOUTH,42.82886862,-78.83007726
QUERCUS MACROCARPA,PARK AVE SOUTH,42.82887413,-78.82869378
VACANT,PARK AVE SOUTH,42.82887661,-78.82664820000001
CARYA GLABRA,PARK AVE SOUTH,42.82887707,-78.82885954
MAGNOLIA STELLATA,PARK AVE SOUTH,42.82887757,-78.82432803
MAGNOLIA STELLATA,PARK AVE SOUTH,42.82888270000001,-78.82428691
QUERCUS MACROCARPA,PARK AVE SOUTH,42.82888667,-78.8296385
VACANT,PARK AVE SOUTH,42.82889258,-78.82667457
CARYA GLABRA,PARK AVE SOUTH,42.82889315,-78.82864909
VACANT,PARK AVE SOUTH,42.82889996,-78.82688626
FAGUS SYLVATICA,PARK AVE SOUTH,42.8289017,-78.83401428
VACANT,PARK AVE SOUTH,42.82890728,-78.82982813
STUMP,PARK AVE SOUTH,42.82891065,-78.82785087
VACANT,PARK AVE SOUTH,42.82891386,-78.82991798
JUGLANS NIGRA,PARK AVE SOUTH,42.82891474,-78.82987377
RHAMNUS CATHARTICA,PARK AVE SOUTH,42.82891645,-78.82898287
STUMP,PARK AVE SOUTH,42.82891697,-78.82989909999999
VACANT,PARK AVE SOUTH,42.82891702,-78.82667252
QUERCUS MACROCARPA,PARK AVE SOUTH,42.82892225,-78.82963357
AESCULUS HIPPOCASTANUM,PARK AVE SOUTH,42.82892343,-78.82958675
STUMP,PARK AVE SOUTH,42.82892403,-78.82981728
STUMP,PARK AVE SOUTH,42.82892459,-78.83010053
STUMP,PARK AVE SOUTH,42.82892645,-78.82992169
VACANT,PARK AVE SOUTH,42.82892827,-78.83025834
MALUS PUMILA,PARK AVE SOUTH,42.82893714,-78.83375595
JUGLANS NIGRA,PARK AVE SOUTH,42.82893937,-78.82977087
VACANT,PARK AVE SOUTH,42.82894566,-78.83439207
VACANT,PARK AVE SOUTH,42.82894627,-78.82520614
FRAXINUS PENNSYLVANICA,PARK AVE SOUTH,42.82894821,-78.82984785
VACANT,PARK AVE SOUTH,42.82895044,-78.82679959999999
ACER SACCHARINUM,PARK AVE SOUTH,42.8289515,-78.830056
VACANT,PARK AVE SOUTH,42.82895412,-78.82970939
RHAMNUS CATHARTICA,PARK AVE SOUTH,42.82898037,-78.82899492
QUERCUS MACROCARPA,PARK AVE SOUTH,42.82898205,-78.82962059999998
VACANT,PARK AVE SOUTH,42.82898555,-78.82554475
VACANT,PARK AVE SOUTH,42.82898642,-78.82980093
VACANT,PARK AVE SOUTH,42.82898759,-78.82542191
QUERCUS MACROCARPA,PARK AVE SOUTH,42.82898908,-78.82969714
QUERCUS MACROCARPA,PARK AVE SOUTH,42.828989299999996,-78.82985713
VACANT,PARK AVE SOUTH,42.82899322,-78.82552111
FAGUS SYLVATICA,PARK AVE SOUTH,42.828993700000005,-78.83410065
ACER PLATANOIDES,PARK AVE SOUTH,42.82900434,-78.8298814
QUERCUS MACROCARPA,PARK AVE SOUTH,42.82900485,-78.82970792
QUERCUS MACROCARPA,PARK AVE SOUTH,42.82901098,-78.82839594
CERCIDIPHYLLUM JAPONICUM,PARK AVE SOUTH,42.82901142,-78.82427142
VACANT,PARK AVE SOUTH,42.82901184,-78.82972501
LIQUIDAMBAR STRYACIFLUA,PARK AVE SOUTH,42.82901253,-78.82493715
RHAMNUS CATHARTICA,PARK AVE SOUTH,42.82901595,-78.82897637
FRAXINUS PENNSYLVANICA,PARK AVE SOUTH,42.829016100000004,-78.82990617
VACANT,PARK AVE SOUTH,42.82902037,-78.82538817
PINUS RESINOSA,PARK AVE SOUTH,42.829021000000004,-78.82772067
VACANT,PARK AVE SOUTH,42.82902223,-78.83269515
VACANT,PARK AVE SOUTH,42.82902306,-78.8326963
PLATANUS X ACERIFOLIA,PARK AVE SOUTH,42.82902334,-78.82420125
ACER SACCHARINUM,PARK AVE SOUTH,42.82902597,-78.83007117
RHAMNUS CATHARTICA,PARK AVE SOUTH,42.8290345,-78.82902544
AESCULUS GLABRA,PARK AVE SOUTH,42.82904149,-78.82933816
FRAXINUS PENNSYLVANICA,PARK AVE SOUTH,42.8290436,-78.82970666
VACANT,PARK AVE SOUTH,42.82904788,-78.82533258
FAGUS SYLVATICA,PARK AVE SOUTH,42.82904825,-78.83399792
CRATAEGUS SPP,PARK AVE SOUTH,42.82905545,-78.83264824
VACANT,PARK AVE SOUTH,42.82905932,-78.82558513
VACANT,PARK AVE SOUTH,42.82905962,-78.82565534
LIQUIDAMBAR STRYACIFLUA,PARK AVE SOUTH,42.82906337,-78.8249536
STUMP,PARK AVE SOUTH,42.82907652,-78.83446056
FRAXINUS PENNSYLVANICA,PARK AVE SOUTH,42.82907801,-78.82962763
FRAXINUS PENNSYLVANICA,PARK AVE SOUTH,42.82908249,-78.82973738
CERCIDIPHYLLUM JAPONICUM,PARK AVE SOUTH,42.82908268,-78.82424438
GINKGO BILOBA,PARK AVE SOUTH,42.82908298,-78.82496218
LIQUIDAMBAR STRYACIFLUA,PARK AVE SOUTH,42.829086600000004,-78.82523755
FAGUS SYLVATICA,PARK AVE SOUTH,42.829087799999996,-78.83414611
FRAXINUS PENNSYLVANICA,PARK AVE SOUTH,42.82909156,-78.8296239
FRAXINUS PENNSYLVANICA,PARK AVE SOUTH,42.82909605,-78.82962746
CRATAEGUS SPP,PARK AVE SOUTH,42.82910232,-78.83275526
ACER SACCHARINUM,PARK AVE SOUTH,42.82910239,-78.82980552
ACER SACCHARINUM,PARK AVE SOUTH,42.82910336,-78.8300125
PINUS RESINOSA,PARK AVE SOUTH,42.82910422,-78.82761305
STUMP,PARK AVE SOUTH,42.82973484,-78.82533305
QUERCUS MACROCARPA,PARK AVE SOUTH,42.82910493,-78.82961617
FRAXINUS PENNSYLVANICA,PARK AVE SOUTH,42.82911809,-78.83000940000001
LIRIODENDRON TULIPIFERA,PARK AVE SOUTH,42.82912264,-78.8241245
FRAXINUS PENNSYLVANICA,PARK AVE SOUTH,42.82912563,-78.82964153
CRATAEGUS SPP,PARK AVE SOUTH,42.82912606,-78.83316705
VACANT,PARK AVE SOUTH,42.82912683,-78.83285575
VACANT,PARK AVE SOUTH,42.82912697,-78.83285702
VACANT,PARK AVE SOUTH,42.82913229,-78.83251321
LIQUIDAMBAR STRYACIFLUA,PARK AVE SOUTH,42.82913319,-78.82497095
VACANT,PARK AVE SOUTH,42.82913321,-78.83251408
FRAXINUS PENNSYLVANICA,PARK AVE SOUTH,42.82913419,-78.82967464
JUGLANS NIGRA,PARK AVE SOUTH,42.82913639,-78.82968932
FRAXINUS PENNSYLVANICA,PARK AVE SOUTH,42.82913797,-78.82972376
FRAXINUS PENNSYLVANICA,PARK AVE SOUTH,42.82913899,-78.82954040000001
CRATAEGUS SPP,PARK AVE SOUTH,42.82913971,-78.83258041
VACANT,PARK AVE SOUTH,42.82914471,-78.83311957
VACANT,PARK AVE SOUTH,42.82914561,-78.83311805
VACANT,PARK AVE SOUTH,42.82914691,-78.83252159
VACANT,PARK AVE SOUTH,42.82914816,-78.83252186
FRAXINUS PENNSYLVANICA,PARK AVE SOUTH,42.829149799999996,-78.82954759999998
JUGLANS NIGRA,PARK AVE SOUTH,42.82915054,-78.82943900000001
PRUNUS SPP,PARK AVE SOUTH,42.82915318,-78.82975094
CRATAEGUS SPP,PARK AVE SOUTH,42.82915493,-78.83409488
CRATAEGUS SPP,PARK AVE SOUTH,42.82915637,-78.83312097
CARYA GLABRA,PARK AVE SOUTH,42.82915682,-78.82971322
VACANT,PARK AVE SOUTH,42.82915893,-78.83273835
VACANT,PARK AVE SOUTH,42.82916122,-78.83307711
VACANT,PARK AVE SOUTH,42.82916217,-78.83307711
QUERCUS RUBRA,PARK AVE SOUTH,42.829165,-78.82976025
LIQUIDAMBAR STRYACIFLUA,PARK AVE SOUTH,42.82916654,-78.82499723
ACER SACCHARINUM,PARK AVE SOUTH,42.82916712,-78.82982151
VACANT,PARK AVE SOUTH,42.82917263,-78.83307992
VACANT,PARK AVE SOUTH,42.82917313,-78.83308088
CRATAEGUS SPP,PARK AVE SOUTH,42.82917347,-78.83174416
JUGLANS NIGRA,PARK AVE SOUTH,42.82917681,-78.82961444
PINUS RESINOSA,PARK AVE SOUTH,42.82917681,-78.8275234
FRAXINUS PENNSYLVANICA,PARK AVE SOUTH,42.82917978,-78.82973773
PRUNUS SPP,PARK AVE SOUTH,42.82918106,-78.82971452
JUGLANS NIGRA,PARK AVE SOUTH,42.82918258,-78.82962894
STUMP,PARK AVE SOUTH,42.82918357,-78.83452086
VACANT,PARK AVE SOUTH,42.82918977,-78.83170193
VACANT,PARK AVE SOUTH,42.82918985,-78.83170162
VACANT,PARK AVE SOUTH,42.82919202,-78.83292443
ACER PLATANOIDES,PARK AVE SOUTH,42.82919207,-78.82978354
VACANT,PARK AVE SOUTH,42.82919268,-78.83292439
CARYA GLABRA,PARK AVE SOUTH,42.82919323,-78.82964441
QUERCUS RUBRA,PARK AVE SOUTH,42.82919391,-78.82974072
PLATANUS X ACERIFOLIA,PARK AVE SOUTH,42.82919701,-78.82417761
TILIA CORDATA,PARK AVE SOUTH,42.82919757,-78.82424227
QUERCUS RUBRA,PARK AVE SOUTH,42.82919769,-78.82976125
VACANT,PARK AVE SOUTH,42.82920815,-78.83304251
VACANT,PARK AVE SOUTH,42.82920889,-78.83304375
AESCULUS HIPPOCASTANUM,PARK AVE SOUTH,42.8292093,-78.82965122
BETULA NIGRA,PARK AVE SOUTH,42.82920997,-78.82417598
VACANT,PARK AVE SOUTH,42.82921131,-78.82527208
VACANT,PARK AVE SOUTH,42.82921254,-78.82636188
LIQUIDAMBAR STRYACIFLUA,PARK AVE SOUTH,42.82921506,-78.8250065
VACANT,PARK AVE SOUTH,42.82921513,-78.82635022
FRAXINUS PENNSYLVANICA,PARK AVE SOUTH,42.82921832,-78.82642278
VACANT,PARK AVE SOUTH,42.8292193,-78.82635854
JUGLANS NIGRA,PARK AVE SOUTH,42.82921979,-78.82969316
VACANT,PARK AVE SOUTH,42.82922108,-78.82823590000001
JUGLANS NIGRA,PARK AVE SOUTH,42.82922684,-78.82936309
TILIA CORDATA,PARK AVE SOUTH,42.82922839,-78.82422902
MAGNOLIA ACUMINATA,PARK AVE SOUTH,42.82922977,-78.8248716
VACANT,PARK AVE SOUTH,42.82923748,-78.82557503
CRATAEGUS SPP,PARK AVE SOUTH,42.82923942,-78.83166247
JUGLANS NIGRA,PARK AVE SOUTH,42.82924718,-78.82941844
BETULA NIGRA,PARK AVE SOUTH,42.82925033,-78.82419204
ACER PLATANOIDES,PARK AVE SOUTH,42.82925317,-78.82962545
VACANT,PARK AVE SOUTH,42.8292533,-78.82628987
CRATAEGUS SPP,PARK AVE SOUTH,42.82925376,-78.8316988
RHAMNUS CATHARTICA,PARK AVE SOUTH,42.82925569,-78.8263566
VACANT,PARK AVE SOUTH,42.82925711,-78.82529705
JUGLANS NIGRA,PARK AVE SOUTH,42.829257500000004,-78.82968918
VACANT,PARK AVE SOUTH,42.82926055,-78.83157094
VACANT,PARK AVE SOUTH,42.82926084,-78.82628204
VACANT,PARK AVE SOUTH,42.82926148,-78.83157142
GINKGO BILOBA,PARK AVE SOUTH,42.82926215,-78.8250157
PINUS RESINOSA,PARK AVE SOUTH,42.82926257,-78.82741052
FRAXINUS PENNSYLVANICA,PARK AVE SOUTH,42.82926478,-78.83028318
VACANT,PARK AVE SOUTH,42.82926517,-78.82556893
VACANT,PARK AVE SOUTH,42.82926896,-78.82574563
VACANT,PARK AVE SOUTH,42.82926993,-78.82557467
RHAMNUS CATHARTICA,PARK AVE SOUTH,42.82927124,-78.82632519
CRATAEGUS SPP,PARK AVE SOUTH,42.82927529,-78.83173819
TILIA CORDATA,PARK AVE SOUTH,42.82927986,-78.82432358
CRATAEGUS SPP,PARK AVE SOUTH,42.82929471,-78.83162714
RHAMNUS CATHARTICA,PARK AVE SOUTH,42.82929565,-78.82634166
ACER PLATANOIDES,PARK AVE SOUTH,42.82929701,-78.82959302
VACANT,PARK AVE SOUTH,42.82930262,-78.82553006
VACANT,PARK AVE SOUTH,42.82930451,-78.83152132
FRAXINUS PENNSYLVANICA,PARK AVE SOUTH,42.829311100000005,-78.82627594
STUMP,PARK AVE SOUTH,42.82931324,-78.83458611
VACANT,PARK AVE SOUTH,42.82931394,-78.82593532
CRATAEGUS SPP,PARK AVE SOUTH,42.82931421,-78.83168288
RHAMNUS CATHARTICA,PARK AVE SOUTH,42.829316,-78.82626471
LIQUIDAMBAR STRYACIFLUA,PARK AVE SOUTH,42.82931624,-78.82502013
FRAXINUS PENNSYLVANICA,PARK AVE SOUTH,42.82931692,-78.8302777
JUGLANS NIGRA,PARK AVE SOUTH,42.82931831,-78.82964587
RHAMNUS CATHARTICA,PARK AVE SOUTH,42.82932035,-78.82628612
VACANT,PARK AVE SOUTH,42.82932046,-78.82594829
SALIX SPP,PARK AVE SOUTH,42.82932226,-78.83017045
VACANT,PARK AVE SOUTH,42.82932295,-78.82591658
VACANT,PARK AVE SOUTH,42.82932318,-78.82597507
LIRIODENDRON TULIPIFERA,PARK AVE SOUTH,42.82932329999999,-78.82487138
TILIA CORDATA,PARK AVE SOUTH,42.82933365,-78.82424613
VACANT,PARK AVE SOUTH,42.82933375,-78.82589542
VACANT,PARK AVE SOUTH,42.82933414,-78.82924127
VACANT,PARK AVE SOUTH,42.8293351,-78.82924176
CRATAEGUS SPP,PARK AVE SOUTH,42.82933791,-78.82624165
VACANT,PARK AVE SOUTH,42.82933792,-78.82588617
CRATAEGUS SPP,PARK AVE SOUTH,42.82933827,-78.82629188
LIRIODENDRON TULIPIFERA,PARK AVE SOUTH,42.82934044,-78.82410684
CRATAEGUS SPP,PARK AVE SOUTH,42.82934089,-78.82624428
FRAXINUS PENNSYLVANICA,PARK AVE SOUTH,42.82934129,-78.82631118
CRATAEGUS SPP,PARK AVE SOUTH,42.82934259,-78.82629415
ROBINIA PSEUDOACACIA,PARK AVE SOUTH,42.82934359,-78.82618031
VACANT,PARK AVE SOUTH,42.82934402,-78.82926245
ACER SACCHARINUM,PARK AVE SOUTH,42.829347,-78.83003151
FRAXINUS PENNSYLVANICA,PARK AVE SOUTH,42.82935578,-78.83028652
LIQUIDAMBAR STRYACIFLUA,PARK AVE SOUTH,42.82936673,-78.82530764
LIRIODENDRON TULIPIFERA,PARK AVE SOUTH,42.82936855,-78.82495155
CRATAEGUS SPP,PARK AVE SOUTH,42.82937058,-78.82573529
RHAMNUS CATHARTICA,PARK AVE SOUTH,42.82937622,-78.82625932
CRATAEGUS SPP,PARK AVE SOUTH,42.82937839,-78.82571907
ACER SACCHARINUM,PARK AVE SOUTH,42.829378399999996,-78.82418432
VACANT,PARK AVE SOUTH,42.82938109,-78.82726522
RHAMNUS CATHARTICA,PARK AVE SOUTH,42.82938737,-78.82624421
LIRIODENDRON TULIPIFERA,PARK AVE SOUTH,42.82938765,-78.82845846
STANDING BUTT,PARK AVE SOUTH,42.82939112,-78.82996857
LIRIODENDRON TULIPIFERA,PARK AVE SOUTH,42.82939162,-78.82414041
BETULA PENDULA,PARK AVE SOUTH,42.82939441,-78.82831074
STANDING BUTT,PARK AVE SOUTH,42.829396,-78.83000216
ACER PLATANOIDES,PARK AVE SOUTH,42.82939601,-78.82618073
CRATAEGUS SPP,PARK AVE SOUTH,42.829397,-78.82618745
CORYLUS COLURNA,PARK AVE SOUTH,42.82940120000001,-78.82814543
LIQUIDAMBAR STRYACIFLUA,PARK AVE SOUTH,42.82940238,-78.82503389
CRATAEGUS SPP,PARK AVE SOUTH,42.82940324,-78.82574038
CRATAEGUS SPP,PARK AVE SOUTH,42.82940425,-78.82621266
LIRIODENDRON TULIPIFERA,PARK AVE SOUTH,42.82940672,-78.82422798
ACER PLATANOIDES,PARK AVE SOUTH,42.82941625,-78.82586402
LIRIODENDRON TULIPIFERA,PARK AVE SOUTH,42.82941768,-78.82835695
CRATAEGUS SPP,PARK AVE SOUTH,42.82942291,-78.82572440000001
FRAXINUS PENNSYLVANICA,PARK AVE SOUTH,42.82942673,-78.83025977
ULMUS RUBRA,PARK AVE SOUTH,42.82942709,-78.83469032
ULMUS AMERICANA,PARK AVE SOUTH,42.82942892,-78.82426261
LIRIODENDRON TULIPIFERA,PARK AVE SOUTH,42.8294292,-78.82490608
LIQUIDAMBAR STRYACIFLUA,PARK AVE SOUTH,42.82943163,-78.82530659
ACER TATARICUM,PARK AVE SOUTH,42.8294323,-78.82810827
ACER PLATANOIDES,PARK AVE SOUTH,42.829447200000004,-78.82577787
STUMP,PARK AVE SOUTH,42.82945249,-78.82607537
LIRIODENDRON TULIPIFERA,PARK AVE SOUTH,42.82945499,-78.82589135
MAGNOLIA ACUMINATA,PARK AVE SOUTH,42.82947835,-78.82415268
FRAXINUS PENNSYLVANICA,PARK AVE SOUTH,42.82947904,-78.83026321
VACANT,PARK AVE SOUTH,42.82949684,-78.82914398
VACANT,PARK AVE SOUTH,42.8294972,-78.82914548
ACER TATARICUM,PARK AVE SOUTH,42.82949884,-78.82804946
LIQUIDAMBAR STRYACIFLUA,PARK AVE SOUTH,42.82949987,-78.82503638
ACER TATARICUM,PARK AVE SOUTH,42.8294999,-78.82812827
FRAXINUS PENNSYLVANICA,PARK AVE SOUTH,42.82950598,-78.83033414
CORNUS MAS,PARK AVE SOUTH,42.82950832,-78.82535792
POPULUS DELTOIDES,PARK AVE SOUTH,42.82951727,-78.82940737
LIRIODENDRON TULIPIFERA,PARK AVE SOUTH,42.82951952,-78.82423102
BETULA NIGRA,PARK AVE SOUTH,42.829525700000005,-78.82605153
CRATAEGUS SPP,PARK AVE SOUTH,42.82952721,-78.82575771
PINUS RESINOSA,PARK AVE SOUTH,42.82954394,-78.82707083
ACER PLATANOIDES,PARK AVE SOUTH,42.82954522,-78.82584066
ACER PLATANOIDES,PARK AVE SOUTH,42.82954579,-78.82538126
PINUS RESINOSA,PARK AVE SOUTH,42.82954641,-78.82707382
RHAMNUS CATHARTICA,PARK AVE SOUTH,42.82955172,-78.82529482
ACER PLATANOIDES,PARK AVE SOUTH,42.82955514,-78.82534978
RHAMNUS CATHARTICA,PARK AVE SOUTH,42.82957057,-78.82607478
CORNUS MAS,PARK AVE SOUTH,42.82957333,-78.82534808
VACANT,PARK AVE SOUTH,42.82957578,-78.82602528
ACER TATARICUM,PARK AVE SOUTH,42.82957702,-78.82806924
ACER TATARICUM,PARK AVE SOUTH,42.82957711,-78.82796966
CRATAEGUS SPP,PARK AVE SOUTH,42.82957945,-78.82572417
BETULA NIGRA,PARK AVE SOUTH,42.82958449,-78.82417176
CRATAEGUS SPP,PARK AVE SOUTH,42.82958928,-78.82611254
CRATAEGUS SPP,PARK AVE SOUTH,42.82959826,-78.82577421
CRATAEGUS SPP,PARK AVE SOUTH,42.82960739999999,-78.82572825
CRATAEGUS SPP,PARK AVE SOUTH,42.82961054,-78.82574045
CRATAEGUS SPP,PARK AVE SOUTH,42.82961352,-78.8257723
FRAXINUS PENNSYLVANICA,PARK AVE SOUTH,42.82962332,-78.82605466
BETULA NIGRA,PARK AVE SOUTH,42.82962616,-78.82896202
CORNUS MAS,PARK AVE SOUTH,42.82962807,-78.82538675
PINUS RESINOSA,PARK AVE SOUTH,42.82963093,-78.82697940000001
POPULUS DELTOIDES,PARK AVE SOUTH,42.82963157,-78.8292394
CRATAEGUS SPP,PARK AVE SOUTH,42.82963936,-78.82577803
CORNUS MAS,PARK AVE SOUTH,42.82964053,-78.82538895
PLATANUS X ACERIFOLIA,PARK AVE SOUTH,42.8296415,-78.82416186
POPULUS DELTOIDES,PARK AVE SOUTH,42.82964268,-78.82921395
CRATAEGUS SPP,PARK AVE SOUTH,42.82964362,-78.82605562
CRATAEGUS SPP,PARK AVE SOUTH,42.82964851,-78.82576448
BETULA NIGRA,PARK AVE SOUTH,42.82964947,-78.8290774
CRATAEGUS SPP,PARK AVE SOUTH,42.82965784,-78.82599626
VACANT,PARK AVE SOUTH,42.82966115,-78.82421135
CRATAEGUS SPP,PARK AVE SOUTH,42.82966154,-78.82576985
LIRIODENDRON TULIPIFERA,PARK AVE SOUTH,42.82966201,-78.82582574
CRATAEGUS SPP,PARK AVE SOUTH,42.82966686,-78.82607222
CRATAEGUS SPP,PARK AVE SOUTH,42.82966807,-78.82602258
CRATAEGUS SPP,PARK AVE SOUTH,42.82966832,-78.8260057
CRATAEGUS SPP,PARK AVE SOUTH,42.82967613,-78.82574484
CRATAEGUS SPP,PARK AVE SOUTH,42.82967655,-78.82570923
CRATAEGUS SPP,PARK AVE SOUTH,42.82967674,-78.82600872
CRATAEGUS SPP,PARK AVE SOUTH,42.82968851,-78.82579307
CRATAEGUS SPP,PARK AVE SOUTH,42.82968979,-78.82578101
CRATAEGUS SPP,PARK AVE SOUTH,42.82970159,-78.82599520000001
STUMP,PARK AVE SOUTH,42.82970445,-78.82536934
RHAMNUS CATHARTICA,PARK AVE SOUTH,42.82970624,-78.82534082
LIRIODENDRON TULIPIFERA,PARK AVE SOUTH,42.82970692,-78.82412905
CRATAEGUS SPP,PARK AVE SOUTH,42.82971385,-78.82602756
CRATAEGUS SPP,PARK AVE SOUTH,42.82973188,-78.82577228
CRATAEGUS SPP,PARK AVE SOUTH,42.82973248,-78.82599531
CRATAEGUS SPP,PARK AVE SOUTH,42.82974104,-78.82575083
CRATAEGUS SPP,PARK AVE SOUTH,42.82974189,-78.82600772
VACANT,PARK AVE SOUTH,42.82974207,-78.82603841
VACANT,PARK AVE SOUTH,42.82974255,-78.82603733
VACANT,PARK AVE SOUTH,42.82974779,-78.82601303
VACANT,PARK AVE SOUTH,42.82974809,-78.82601125
CRATAEGUS SPP,PARK AVE SOUTH,42.8297521,-78.8259965
CRATAEGUS SPP,PARK AVE SOUTH,42.82975322,-78.82578671
CRATAEGUS SPP,PARK AVE SOUTH,42.8297627,-78.82579899
STUMP,PARK AVE SOUTH,42.82976327,-78.825344
CRATAEGUS SPP,PARK AVE SOUTH,42.82977202,-78.82578955
CRATAEGUS SPP,PARK AVE SOUTH,42.82977385,-78.82577062
STUMP,PARK AVE SOUTH,42.82977843,-78.82533346
CRATAEGUS SPP,PARK AVE SOUTH,42.82977962,-78.82598794
FRAXINUS PENNSYLVANICA,PARK AVE SOUTH,42.82977985,-78.82551315
CRATAEGUS SPP,PARK AVE SOUTH,42.82978705,-78.8260238
STUMP,PARK AVE SOUTH,42.82985779,-78.82533598
BETULA NIGRA,PARK AVE SOUTH,42.82987509,-78.8241386
LIRIODENDRON TULIPIFERA,PARK AVE SOUTH,42.82990357,-78.82412443
BETULA NIGRA,PARK AVE SOUTH,42.82993868,-78.82594797
VACANT,PARK AVE SOUTH,42.82996894,-78.82586388
STUMP,PARK AVE SOUTH,42.82997494,-78.825783
STUMP,PARK AVE SOUTH,42.829985,-78.82578432
STUMP,PARK AVE SOUTH,42.82999007,-78.82563065
STUMP,PARK AVE SOUTH,42.82999116,-78.82561985
STUMP,PARK AVE SOUTH,42.82999746,-78.82562798
FRAXINUS PENNSYLVANICA,PARK AVE SOUTH,42.82999872,-78.8259095
ACER SACCHARINUM,PARK AVE SOUTH,42.83000034,-78.82423783
BETULA PENDULA,PARK AVE SOUTH,42.83001878,-78.82853367
QUERCUS RUBRA,PARK AVE SOUTH,42.83002261,-78.82887867
ACER SACCHARINUM,PARK AVE SOUTH,42.83002571,-78.82427771
STUMP,PARK AVE SOUTH,42.8300307,-78.82564997
STUMP,PARK AVE SOUTH,42.83003549,-78.82569329
FRAXINUS PENNSYLVANICA,PARK AVE SOUTH,42.83004018,-78.82545474
STUMP,PARK AVE SOUTH,42.83004308,-78.8256261
FRAXINUS AMERICANA,PARK AVE SOUTH,42.83004421,-78.82649866
STUMP,PARK AVE SOUTH,42.83004803,-78.8256684
STUMP,PARK AVE SOUTH,42.83004845,-78.8256762
STUMP,PARK AVE SOUTH,42.83005255,-78.82570317
LIRIODENDRON TULIPIFERA,PARK AVE SOUTH,42.83005272,-78.82860343
BETULA NIGRA,PARK AVE SOUTH,42.83007512,-78.82414071
FRAXINUS PENNSYLVANICA,PARK AVE SOUTH,42.83008036,-78.82572814
ACER SACCHARINUM,PARK AVE SOUTH,42.830081400000005,-78.82425223
SALIX NIGRA,PARK AVE SOUTH,42.83009516,-78.82553903
FRAXINUS AMERICANA,PARK AVE SOUTH,42.83009843,-78.82638007
FRAXINUS PENNSYLVANICA,PARK AVE SOUTH,42.83010923,-78.82545175
FRAXINUS AMERICANA,PARK AVE SOUTH,42.83012454,-78.82623418
SALIX NIGRA,PARK AVE SOUTH,42.8301326,-78.82555169
BETULA NIGRA,PARK AVE SOUTH,42.83014389,-78.82838541
ACER SACCHARINUM,PARK AVE SOUTH,42.83014478,-78.82423207
BETULA NIGRA,PARK AVE SOUTH,42.83014635,-78.82832312
ACER SACCHARINUM,PARK AVE SOUTH,42.83015347,-78.82428117
LIRIODENDRON TULIPIFERA,PARK AVE SOUTH,42.83018976,-78.82411894
BETULA NIGRA,PARK AVE SOUTH,42.83021391,-78.828447
VACANT,PARK AVE SOUTH,42.83021476,-78.82845793
JUGLANS NIGRA,PARK AVE SOUTH,42.83021769,-78.82606913
QUERCUS RUBRA,PARK AVE SOUTH,42.83023621,-78.82413536
POPULUS DELTOIDES,PARK AVE SOUTH,42.83024545,-78.82595059
STUMP,PARK AVE SOUTH,42.83025252,-78.82838847
ACER SACCHARINUM,PARK AVE SOUTH,42.83025994,-78.82448611
QUERCUS ALBA,PARK AVE SOUTH,42.83026158,-78.82690706
LIRIODENDRON TULIPIFERA,PARK AVE SOUTH,42.83026715,-78.8241064
LIQUIDAMBAR STRYACIFLUA,PARK AVE SOUTH,42.83028565,-78.82489916
STUMP,PARK AVE SOUTH,42.83028698,-78.82608028
STUMP,PARK AVE SOUTH,42.83028879,-78.82605490000002
BETULA NIGRA,PARK AVE SOUTH,42.83028970000001,-78.82822527
ACER SACCHARINUM,PARK AVE SOUTH,42.83030625,-78.82450804
BETULA NIGRA,PARK AVE SOUTH,42.83030669,-78.82847236
FRAXINUS EXCELSIOR,PARK AVE SOUTH,42.83030949,-78.82851401
SALIX NIGRA,PARK AVE SOUTH,42.83032124,-78.82574499
FRAXINUS EXCELSIOR,PARK AVE SOUTH,42.8303224,-78.82551876
FRAXINUS EXCELSIOR,PARK AVE SOUTH,42.83032259,-78.82603675
PRUNUS SEROTINA,PARK AVE SOUTH,42.83032667,-78.82806619
ACER SACCHARINUM,PARK AVE SOUTH,42.83033211,-78.82416625
BETULA NIGRA,PARK AVE SOUTH,42.83034042,-78.82823474
LIQUIDAMBAR STRYACIFLUA,PARK AVE SOUTH,42.83034382,-78.82532469
PRUNUS SEROTINA,PARK AVE SOUTH,42.83034394,-78.82805585
ZELKOVA SERRATA 'WIRELESS',PARK AVE SOUTH,42.83034899,-78.82612159
STUMP,PARK AVE SOUTH,42.83035864,-78.82639036
FRAXINUS PENNSYLVANICA,PARK AVE SOUTH,42.83036186,-78.82646593
LIQUIDAMBAR STRYACIFLUA,PARK AVE SOUTH,42.830371299999996,-78.82469332
FRAXINUS EXCELSIOR,PARK AVE SOUTH,42.83037228,-78.82793283
FRAXINUS PENNSYLVANICA,PARK AVE SOUTH,42.83037515,-78.82838792
STUMP,PARK AVE SOUTH,42.83037606,-78.826277
SALIX NIGRA,PARK AVE SOUTH,42.83037965,-78.82583722
SALIX NIGRA,PARK AVE SOUTH,42.83038072,-78.82586018
LIQUIDAMBAR STRYACIFLUA,PARK AVE SOUTH,42.83038202,-78.8245897
LIQUIDAMBAR STRYACIFLUA,PARK AVE SOUTH,42.83039382,-78.82534859
BETULA NIGRA,PARK AVE SOUTH,42.83040461,-78.82832744
LIRIODENDRON TULIPIFERA,PARK AVE SOUTH,42.83040667,-78.82410399
VACANT,PARK AVE SOUTH,42.83041099,-78.82422286
FRAXINUS PENNSYLVANICA,PARK AVE SOUTH,42.83042952,-78.82820124
LIQUIDAMBAR STRYACIFLUA,PARK AVE SOUTH,42.83043127,-78.82444462
STUMP,PARK AVE SOUTH,42.83043274,-78.8263359
STUMP,PARK AVE SOUTH,42.83043722,-78.82637401
ACER SACCHARINUM,PARK AVE SOUTH,42.83044095,-78.82424184
STUMP,PARK AVE SOUTH,42.83044334,-78.82635848
VACANT,PARK AVE SOUTH,42.83044657,-78.82536134
ACER SACCHARINUM,PARK AVE SOUTH,42.83045,-78.82411817
SALIX NIGRA,PARK AVE SOUTH,42.83046234,-78.82598237
ACER SACCHARINUM,PARK AVE SOUTH,42.83046933,-78.82421281
STUMP,PARK AVE SOUTH,42.83047341,-78.82801887
FRAXINUS AMERICANA,PARK AVE SOUTH,42.83047412,-78.82644265
FRAXINUS AMERICANA,PARK AVE SOUTH,42.83048734,-78.82652272
FRAXINUS PENNSYLVANICA,PARK AVE SOUTH,42.83050419,-78.82634185
SALIX NIGRA,PARK AVE SOUTH,42.83050623,-78.82626952
LIQUIDAMBAR STRYACIFLUA,PARK AVE SOUTH,42.83050823,-78.82538259999998
FRAXINUS AMERICANA,PARK AVE SOUTH,42.83051957,-78.82792337
LIQUIDAMBAR STRYACIFLUA,PARK AVE SOUTH,42.83052434,-78.82416462
LIQUIDAMBAR STRYACIFLUA,PARK AVE SOUTH,42.83053603,-78.82408919
STUMP,PARK AVE SOUTH,42.83054597,-78.82478134
QUERCUS MACROCARPA,PARK AVE SOUTH,42.83054741,-78.82468254
LIQUIDAMBAR STRYACIFLUA,PARK AVE SOUTH,42.83055114,-78.82540163
DIOSPYROS VIRGINIANA,PARK AVE SOUTH,42.83055324,-78.82547911
STUMP,PARK AVE SOUTH,42.83055755,-78.82487034
SALIX BABYLONICA,PARK AVE SOUTH,42.83056534,-78.82599421
ACER CAMPESTRE,PARK AVE SOUTH,42.83057073,-78.82461571
SALIX BABYLONICA,PARK AVE SOUTH,42.830582299999996,-78.82589586
ACER SACCHARINUM,PARK AVE SOUTH,42.83058894,-78.82494001
SALIX NIGRA,PARK AVE SOUTH,42.83059658,-78.8265332
STUMP,PARK AVE SOUTH,42.83059995,-78.82498871
LIQUIDAMBAR STRYACIFLUA,PARK AVE SOUTH,42.83060156,-78.82542318
ACER PLATANOIDES,PARK AVE SOUTH,42.83060261,-78.82454359
SALIX BABYLONICA,PARK AVE SOUTH,42.83061456,-78.82588446
CRATAEGUS SPP,PARK AVE SOUTH,42.83061469,-78.82691436
FRAXINUS AMERICANA,PARK AVE SOUTH,42.83061719,-78.8250314
DIOSPYROS VIRGINIANA,PARK AVE SOUTH,42.83063402,-78.82555359999999
DIOSPYROS VIRGINIANA,PARK AVE SOUTH,42.83063627,-78.82553112
STUMP,PARK AVE SOUTH,42.83063651,-78.82507702
LIQUIDAMBAR STRYACIFLUA,PARK AVE SOUTH,42.83064041,-78.82545603
DIOSPYROS VIRGINIANA,PARK AVE SOUTH,42.83065587,-78.82546576
CELTIS OCCIDENTALIS,PARK AVE SOUTH,42.83065704,-78.82511685
FRAXINUS AMERICANA,PARK AVE SOUTH,42.83065863,-78.82760243
SALIX BABYLONICA,PARK AVE SOUTH,42.83066659,-78.82606422
DIOSPYROS VIRGINIANA,PARK AVE SOUTH,42.83066828,-78.82564233
DIOSPYROS VIRGINIANA,PARK AVE SOUTH,42.83068,-78.82565064
LIQUIDAMBAR STRYACIFLUA,PARK AVE SOUTH,42.83069236,-78.82550377
DIOSPYROS VIRGINIANA,PARK AVE SOUTH,42.83069263,-78.82561711
CORNUS RACEMOSA,PARK AVE SOUTH,42.83069671,-78.82566872
ACER RUBRUM,PARK AVE SOUTH,42.83070083,-78.82516673
DIOSPYROS VIRGINIANA,PARK AVE SOUTH,42.83071823,-78.82564629
PLATANUS X ACERIFOLIA,PARK AVE SOUTH,42.83073819,-78.82521997
VACANT,PARK AVE SOUTH,42.83074133,-78.82568781
POPULUS DELTOIDES,PARK AVE SOUTH,42.83074188,-78.82637513
TILIA AMERICANA,PARK AVE SOUTH,42.83075229,-78.82431513
STUMP,PARK AVE SOUTH,42.83075813,-78.82611461
CRATAEGUS SPP,PARK AVE SOUTH,42.83078076,-78.82621673
RHAMNUS CATHARTICA,PARK AVE SOUTH,42.83078704,-78.82617666
VACANT,PARK AVE SOUTH,42.83078944,-78.82579839
TILIA AMERICANA,PARK AVE SOUTH,42.83080109,-78.82425904
LIQUIDAMBAR STRYACIFLUA,PARK AVE SOUTH,42.83080785,-78.82573937
CELTIS OCCIDENTALIS,PARK AVE SOUTH,42.83082115,-78.82532567
RHAMNUS CATHARTICA,PARK AVE SOUTH,42.83082224,-78.82420047
VACANT,PARK AVE SOUTH,42.830822999999995,-78.82627044
LIQUIDAMBAR STRYACIFLUA,PARK AVE SOUTH,42.83082724,-78.82578799
STUMP,PARK AVE SOUTH,42.83084101,-78.82586063
ACER RUBRUM,PARK AVE SOUTH,42.83084494,-78.82527376
ACER SACCHARINUM,PARK AVE SOUTH,42.8308475,-78.8241142
STUMP,PARK AVE SOUTH,42.83085333,-78.82634534
FRAXINUS AMERICANA,PARK AVE SOUTH,42.830863,-78.82423379
OSTRYA VIRGINIANA,PARK AVE SOUTH,42.83086959,-78.82422235
CRATAEGUS SPP,PARK AVE SOUTH,42.83087703,-78.82412332
STUMP,PARK AVE SOUTH,42.83089157,-78.82592144
CORNUS MAS,PARK AVE SOUTH,42.83090679,-78.82608084
VACANT,PARK AVE SOUTH,42.8309204,-78.82416267
VACANT,PARK AVE SOUTH,42.83092749,-78.82611264
LIQUIDAMBAR STRYACIFLUA,PARK AVE SOUTH,42.83092761,-78.82590096
VACANT,PARK AVE SOUTH,42.83092776,-78.8261128
CRATAEGUS SPP,PARK AVE SOUTH,42.83092938,-78.82644064
ACER RUBRUM,PARK AVE SOUTH,42.83093452,-78.82534393
LIQUIDAMBAR STRYACIFLUA,PARK AVE SOUTH,42.83093516,-78.82596509999999
CRATAEGUS SPP,PARK AVE SOUTH,42.83094216,-78.824088
ACER SACCHARINUM,PARK AVE SOUTH,42.83094313,-78.82406666
STUMP,PARK AVE SOUTH,42.83095777,-78.82636965
LIQUIDAMBAR STRYACIFLUA,PARK AVE SOUTH,42.83097239,-78.82605248
LIQUIDAMBAR STRYACIFLUA,PARK AVE SOUTH,42.83097614,-78.82605594
VACANT,PARK AVE SOUTH,42.830976799999995,-78.82601779
OSTRYA VIRGINIANA,PARK AVE SOUTH,42.83098214,-78.82421194
OSTRYA VIRGINIANA,PARK AVE SOUTH,42.83098856,-78.82410061
ACER RUBRUM,PARK AVE SOUTH,42.83098963,-78.825439
CORNUS MAS,PARK AVE SOUTH,42.83099327,-78.826352
CRATAEGUS SPP,PARK AVE SOUTH,42.83099742,-78.82632752
OSTRYA VIRGINIANA,PARK AVE SOUTH,42.83100054,-78.82413482
LIQUIDAMBAR STRYACIFLUA,PARK AVE SOUTH,42.83100444,-78.82608767
TILIA AMERICANA,PARK AVE SOUTH,42.83101405,-78.82418014
OSTRYA VIRGINIANA,PARK AVE SOUTH,42.83103417,-78.82422983
VACANT,PARK AVE SOUTH,42.83104017,-78.82615425
VACANT,PARK AVE SOUTH,42.83104052,-78.82615279
VACANT,PARK AVE SOUTH,42.83106108,-78.82625675
LIQUIDAMBAR STRYACIFLUA,PARK AVE SOUTH,42.83106647,-78.82620533
STUMP OBSTRUCTED,PARK AVE SOUTH,42.83108135,-78.82689945
MALUS SPP,PARK AVE SOUTH,42.83108529999999,-78.82456353
CRATAEGUS SPP,PARK AVE SOUTH,42.83108599,-78.82406124
ACER SACCHARINUM,PARK AVE SOUTH,42.83109689,-78.82418375
ACER SACCHARINUM,PARK AVE SOUTH,42.83110803,-78.82406276
OSTRYA VIRGINIANA,PARK AVE SOUTH,42.83111019,-78.82414164
ACER SACCHARINUM,PARK AVE SOUTH,42.83111812,-78.82433254
QUERCUS RUBRA,PARK AVE SOUTH,42.83112999,-78.82708931
TILIA AMERICANA,PARK AVE SOUTH,42.83113407,-78.82414354
LIQUIDAMBAR STRYACIFLUA,PARK AVE SOUTH,42.83113827,-78.82638216
ACER SACCHARINUM,PARK AVE SOUTH,42.83115271,-78.82427854
QUERCUS RUBRA,PARK AVE SOUTH,42.83117644,-78.82691647
ACER SACCHARINUM,PARK AVE SOUTH,42.83117773,-78.82444662
VACANT,PARK AVE SOUTH,42.83117961,-78.82643616
ACER SACCHARINUM,PARK AVE SOUTH,42.83118566,-78.82418484
ACER SACCHARINUM,PARK AVE SOUTH,42.83119209,-78.82409086
VACANT,PARK AVE SOUTH,42.83119825,-78.82665199
VACANT,PARK AVE SOUTH,42.83119826,-78.8266507
SALIX NIGRA,PARK AVE SOUTH,42.8312012,-78.82759763
LIQUIDAMBAR STRYACIFLUA,PARK AVE SOUTH,42.83120478,-78.82653388
OSTRYA VIRGINIANA,PARK AVE SOUTH,42.83120822,-78.82413938
ACER SACCHARINUM,PARK AVE SOUTH,42.83120856,-78.82415589
VACANT,PARK AVE SOUTH,42.83123214,-78.82419808
LIQUIDAMBAR STRYACIFLUA,PARK AVE SOUTH,42.83124516,-78.82657201
SALIX NIGRA,PARK AVE SOUTH,42.83125194,-78.82789644
VACANT,PARK AVE SOUTH,42.83125609,-78.82821952
LIQUIDAMBAR STRYACIFLUA,PARK AVE SOUTH,42.83126338,-78.82663737
PINUS NIGRA,PARK AVE SOUTH,42.831263799999995,-78.82443661
FAGUS SYLVATICA,PARK AVE SOUTH,42.83126391,-78.82774955
RHAMNUS CATHARTICA,PARK AVE SOUTH,42.83126577,-78.82796102
LIQUIDAMBAR STRYACIFLUA,PARK AVE SOUTH,42.83127744,-78.82671072
ACER SACCHARINUM,PARK AVE SOUTH,42.83128191,-78.82446905
RHAMNUS CATHARTICA,PARK AVE SOUTH,42.831292499999996,-78.82805445
ACER SACCHARINUM,PARK AVE SOUTH,42.83129702,-78.82416237
ACER SACCHARINUM,PARK AVE SOUTH,42.83130764,-78.82428062
ACER SACCHARINUM,PARK AVE SOUTH,42.83132097,-78.82443553
ACER SACCHARINUM,PARK AVE SOUTH,42.83132766,-78.82436678
OSTRYA VIRGINIANA,PARK AVE SOUTH,42.83134939,-78.82429462
LIQUIDAMBAR STRYACIFLUA,PARK AVE SOUTH,42.83135027,-78.82685348
ACER SACCHARINUM,PARK AVE SOUTH,42.83135456,-78.82451536
VACANT,PARK AVE SOUTH,42.83136539,-78.82758396
VACANT,PARK AVE SOUTH,42.8313664,-78.82758337
ACER SACCHARINUM,PARK AVE SOUTH,42.83136933,-78.8244629
ACER SACCHARINUM,PARK AVE SOUTH,42.8313751,-78.82437464
ACER SACCHARINUM,PARK AVE SOUTH,42.83138031,-78.82453103
OSTRYA VIRGINIANA,PARK AVE SOUTH,42.83138296,-78.82446306
ACER SACCHARINUM,PARK AVE SOUTH,42.83138366,-78.82458349
ACER SACCHARINUM,PARK AVE SOUTH,42.8314124,-78.82469194
TILIA CORDATA,PARK AVE SOUTH,42.83141663,-78.83418517
TILIA CORDATA,PARK AVE SOUTH,42.83142329,-78.83394894
NYSSA SYLVATICA,PARK AVE SOUTH,42.83143137,-78.8271968
TILIA CORDATA,PARK AVE SOUTH,42.83143166,-78.83379718
ACER SACCHARINUM,PARK AVE SOUTH,42.83143625,-78.82452243
ACER SACCHARINUM,PARK AVE SOUTH,42.83143812,-78.82460561
VACANT,PARK AVE SOUTH,42.83144628,-78.82706887
LIQUIDAMBAR STRYACIFLUA,PARK AVE SOUTH,42.83144696,-78.82706091
OSTRYA VIRGINIANA,PARK AVE SOUTH,42.83146104,-78.82458938
RHAMNUS CATHARTICA,PARK AVE SOUTH,42.83146935,-78.82712989
NYSSA SYLVATICA,PARK AVE SOUTH,42.83147094,-78.82717448
ACER SACCHARINUM,PARK AVE SOUTH,42.8314717,-78.82443412
RHAMNUS CATHARTICA,PARK AVE SOUTH,42.83147379,-78.82717661
TILIA CORDATA,PARK AVE SOUTH,42.83147516,-78.82646629999999
TILIA AMERICANA,PARK AVE SOUTH,42.83148497,-78.82609062
ACER SACCHARINUM,PARK AVE SOUTH,42.83148724,-78.82456552
MAGNOLIA ACUMINATA,PARK AVE SOUTH,42.83148992,-78.82713909
QUERCUS RUBRA,PARK AVE SOUTH,42.83149265,-78.82732472
ACER SACCHARINUM,PARK AVE SOUTH,42.83149668,-78.82468068
ACER SACCHARINUM,PARK AVE SOUTH,42.8314996,-78.82470868
NYSSA SYLVATICA,PARK AVE SOUTH,42.83151237,-78.82718761
TILIA CORDATA,PARK AVE SOUTH,42.83151383,-78.8336051
ACER RUBRUM,PARK AVE SOUTH,42.83151452,-78.82734391
NYSSA SYLVATICA,PARK AVE SOUTH,42.83151536,-78.82723129
RHAMNUS CATHARTICA,PARK AVE SOUTH,42.83151766,-78.82786981
RHAMNUS CATHARTICA,PARK AVE SOUTH,42.83152198,-78.82792685
NYSSA SYLVATICA,PARK AVE SOUTH,42.83152232,-78.82721521
ACER SACCHARINUM,PARK AVE SOUTH,42.83152271,-78.82784618
SALIX NIGRA,PARK AVE SOUTH,42.8315307,-78.82807101
ULMUS AMERICANA,PARK AVE SOUTH,42.831534399999995,-78.82790288
VACANT,PARK AVE SOUTH,42.83153933,-78.82474041
QUERCUS RUBRA,PARK AVE SOUTH,42.83153970000001,-78.82744847
ACER RUBRUM,PARK AVE SOUTH,42.8315404,-78.82778515
ULMUS AMERICANA,PARK AVE SOUTH,42.83154464,-78.82789352
FRAXINUS PENNSYLVANICA,PARK AVE SOUTH,42.83154769,-78.82796902
FRAXINUS AMERICANA,PARK AVE SOUTH,42.83154781,-78.82802202
LIRIODENDRON TULIPIFERA,PARK AVE SOUTH,42.83154879999999,-78.82752981
VACANT,PARK AVE SOUTH,42.83155069,-78.82641098
ULMUS AMERICANA,PARK AVE SOUTH,42.83156015,-78.82797578
SALIX NIGRA,PARK AVE SOUTH,42.83156148,-78.82806383
GLEDITSIA TRIACANTHOS,PARK AVE SOUTH,42.83156394,-78.83427791
FRAXINUS AMERICANA,PARK AVE SOUTH,42.83156756,-78.82493523
NYSSA SYLVATICA,PARK AVE SOUTH,42.83156993,-78.82733633
STUMP,PARK AVE SOUTH,42.83157002,-78.82793409
FRAXINUS PENNSYLVANICA,PARK AVE SOUTH,42.83157155,-78.82787229
ACER SACCHARINUM,PARK AVE SOUTH,42.83157332,-78.82468456
STUMP,PARK AVE SOUTH,42.83157782,-78.8263299
ACER SACCHARINUM,PARK AVE SOUTH,42.83157794,-78.82466392
FRAXINUS PENNSYLVANICA,PARK AVE SOUTH,42.83157977,-78.82786664
STUMP,PARK AVE SOUTH,42.83158295,-78.82799987
AESCULUS HIPPOCASTANUM,PARK AVE SOUTH,42.8315896,-78.83089596
STUMP,PARK AVE SOUTH,42.83159037,-78.82800689
QUERCUS RUBRA,PARK AVE SOUTH,42.83159375,-78.82759666
AESCULUS GLABRA,PARK AVE SOUTH,42.8315952,-78.83073877
STUMP,PARK AVE SOUTH,42.83160072,-78.82620642
ACER SACCHARINUM,PARK AVE SOUTH,42.83160646,-78.82520032
RHAMNUS CATHARTICA,PARK AVE SOUTH,42.83160678,-78.82788616
NYSSA SYLVATICA,PARK AVE SOUTH,42.83160746,-78.82744005
ACER SACCHARINUM,PARK AVE SOUTH,42.83160843,-78.82500396
ACER SACCHARINUM,PARK AVE SOUTH,42.83161001,-78.82487043
POPULUS DELTOIDES,PARK AVE SOUTH,42.831610299999994,-78.8279191
MAGNOLIA ACUMINATA,PARK AVE SOUTH,42.83161054,-78.82750694
AESCULUS HIPPOCASTANUM,PARK AVE SOUTH,42.831611200000005,-78.83060485
ACER PLATANOIDES,PARK AVE SOUTH,42.83161329,-78.83042276
PINUS STROBUS,PARK AVE SOUTH,42.83161351,-78.82900405
LIQUIDAMBAR STRYACIFLUA,PARK AVE SOUTH,42.83161608,-78.82782901
ACER SACCHARINUM,PARK AVE SOUTH,42.83162328,-78.82484542
STUMP,PARK AVE SOUTH,42.83162427,-78.82686999
GLEDITSIA TRIACANTHOS,PARK AVE SOUTH,42.83162508,-78.8340937
ACER SACCHARINUM,PARK AVE SOUTH,42.83162521,-78.82510663
ACER SACCHARINUM,PARK AVE SOUTH,42.8316328,-78.8247623
OSTRYA VIRGINIANA,PARK AVE SOUTH,42.8316458,-78.82484135
LIQUIDAMBAR STRYACIFLUA,PARK AVE SOUTH,42.83164589,-78.82778068
POPULUS DELTOIDES,PARK AVE SOUTH,42.83164698,-78.82789906
ACER SACCHARINUM,PARK AVE SOUTH,42.83165013,-78.82522094
NYSSA SYLVATICA,PARK AVE SOUTH,42.83165262,-78.82753176
GYMNOCLADUS DIOICUS,PARK AVE SOUTH,42.83165727,-78.83390201
PINUS STROBUS,PARK AVE SOUTH,42.83166575,-78.82892202
SALIX NIGRA,PARK AVE SOUTH,42.8316661,-78.8282131
VACANT,PARK AVE SOUTH,42.83167219,-78.82771443
ACER SACCHARINUM,PARK AVE SOUTH,42.83167559,-78.82493846
ACER SACCHARINUM,PARK AVE SOUTH,42.83167628,-78.82513279
VACANT,PARK AVE SOUTH,42.83167837,-78.82474889
ACER SACCHARINUM,PARK AVE SOUTH,42.83167918,-78.82498758
ACER SACCHARINUM,PARK AVE SOUTH,42.83168542,-78.82540079
ACER SACCHARINUM,PARK AVE SOUTH,42.83170048,-78.82531081
GYMNOCLADUS DIOICUS,PARK AVE SOUTH,42.83170188,-78.83382702
VACANT,PARK AVE SOUTH,42.83170433,-78.82816519
ACER SACCHARINUM,PARK AVE SOUTH,42.83170627,-78.82507093
NYSSA SYLVATICA,PARK AVE SOUTH,42.83170842,-78.82502971
PHELLODENDRON AMURENSE,PARK AVE SOUTH,42.83172158,-78.83407467
TILIA AMERICANA,PARK AVE SOUTH,42.83172889,-78.82691845
POPULUS DELTOIDES,PARK AVE SOUTH,42.83173154,-78.82821458
ACER SACCHARINUM,PARK AVE SOUTH,42.83173857,-78.82493593
ACER SACCHARINUM,PARK AVE SOUTH,42.83173938,-78.82521835
SYRINGA RETICULATA,PARK AVE SOUTH,42.83174338,-78.82762318
ACER SACCHARINUM,PARK AVE SOUTH,42.83174799,-78.82514207
ACER SACCHARINUM,PARK AVE SOUTH,42.83174879,-78.82549503
VACANT,PARK AVE SOUTH,42.83175166,-78.82851142
ACER SACCHARINUM,PARK AVE SOUTH,42.83175756,-78.82537493
GYMNOCLADUS DIOICUS,PARK AVE SOUTH,42.83176158,-78.83375769
ACER SACCHARINUM,PARK AVE SOUTH,42.83176352,-78.82528529
VACANT,PARK AVE SOUTH,42.83177087,-78.82920322
VACANT,PARK AVE SOUTH,42.83178304,-78.83297074
AESCULUS HIPPOCASTANUM,PARK AVE SOUTH,42.83178861,-78.82939133
ROBINIA PSEUDOACACIA,PARK AVE SOUTH,42.831790399999996,-78.83334141
ACER SACCHARINUM,PARK AVE SOUTH,42.831798299999996,-78.82490719
ACER SACCHARINUM,PARK AVE SOUTH,42.83180423,-78.8250282
GYMNOCLADUS DIOICUS,PARK AVE SOUTH,42.83180931,-78.83371581
AESCULUS HIPPOCASTANUM,PARK AVE SOUTH,42.83181692,-78.83082382
ACER SACCHARINUM,PARK AVE SOUTH,42.83181941,-78.82497297
ACER SACCHARINUM,PARK AVE SOUTH,42.83182019,-78.82518794
LIQUIDAMBAR STRYACIFLUA,PARK AVE SOUTH,42.83183988,-78.82665727
AESCULUS GLABRA,PARK AVE SOUTH,42.83184036,-78.83067172
AESCULUS GLABRA,PARK AVE SOUTH,42.83184305,-78.83193726
AESCULUS GLABRA,PARK AVE SOUTH,42.83184779,-78.83181734
AESCULUS GLABRA,PARK AVE SOUTH,42.83185799,-78.83172304
ACER SACCHARINUM,PARK AVE SOUTH,42.83186035,-78.82508211
ACER SACCHARINUM,PARK AVE SOUTH,42.83186181,-78.82513221
AESCULUS HIPPOCASTANUM,PARK AVE SOUTH,42.83188744,-78.83027383
AESCULUS HIPPOCASTANUM,PARK AVE SOUTH,42.83189255,-78.82921481
AESCULUS PAVIA,PARK AVE SOUTH,42.83192166,-78.82878158
VACANT,PARK AVE SOUTH,42.83192244,-78.82892167
AESCULUS HIPPOCASTANUM,PARK AVE SOUTH,42.83193338,-78.83004224
AESCULUS HIPPOCASTANUM,PARK AVE SOUTH,42.83196676,-78.82978801
QUERCUS MACROCARPA,PARK AVE SOUTH,42.83196794,-78.83032031
AESCULUS HIPPOCASTANUM,PARK AVE SOUTH,42.83197843,-78.82970252
GLEDITSIA TRIACANTHOS INERMIS,PARK AVE SOUTH,42.83200497,-78.82950099
PLATANUS X ACERIFOLIA 'BLOODGOOD',PARK AVE SOUTH,42.83201235,-78.82398826
AESCULUS HIPPOCASTANUM,PARK AVE SOUTH,42.83201894,-78.83029999
GLEDITSIA TRIACANTHOS INERMIS,PARK AVE SOUTH,42.83203386,-78.82936397
VACANT,PARK AVE SOUTH,42.83204573,-78.82546906
VACANT,PARK AVE SOUTH,42.83204589,-78.82546849
MAACKIA AMURENSIS,PARK AVE SOUTH,42.83206453,-78.82918582
UNKNOWN TREE,PARK AVE SOUTH,42.83207009,-78.82945620000001
UNKNOWN TREE,PARK AVE SOUTH,42.83207377,-78.82937517
PLATANUS X ACERIFOLIA 'BLOODGOOD',PARK AVE SOUTH,42.83209096,-78.82398614
VACANT,PARK AVE SOUTH,42.83209165,-78.82544039
VACANT,PARK AVE SOUTH,42.8320926,-78.82543884
RHAMNUS CATHARTICA,PARK AVE SOUTH,42.83209617,-78.8281701
GLEDITSIA TRIACANTHOS INERMIS,PARK AVE SOUTH,42.83210936,-78.82946027
MAACKIA AMURENSIS,PARK AVE SOUTH,42.83211644,-78.82929345
FRAXINUS AMERICANA,PARK AVE SOUTH,42.83211857,-78.82829677
UNKNOWN TREE,PARK AVE SOUTH,42.832122999999996,-78.82932293
AESCULUS HIPPOCASTANUM,PARK AVE SOUTH,42.83212845,-78.82858105
AESCULUS HIPPOCASTANUM,PARK AVE SOUTH,42.83213184,-78.82907486
AESCULUS HIPPOCASTANUM,PARK AVE SOUTH,42.832147,-78.82850976
UNKNOWN TREE,PARK AVE SOUTH,42.83214741,-78.82939453
STUMP,PARK AVE SOUTH,42.83214845,-78.82884656
PLATANUS X ACERIFOLIA 'BLOODGOOD',PARK AVE SOUTH,42.83215349,-78.82398395
PHELLODENDRON AMURENSE,PARK AVE SOUTH,42.83217253,-78.82554585
SASSAFRAS ALBIDUM,PARK AVE SOUTH,42.83217428,-78.82692721
POPULUS DELTOIDES,PARK AVE SOUTH,42.83218021,-78.82698590000001
AESCULUS HIPPOCASTANUM,PARK AVE SOUTH,42.83220128,-78.82848618
MAACKIA AMURENSIS,PARK AVE SOUTH,42.83221263,-78.82915441
PLATANUS X ACERIFOLIA 'BLOODGOOD',PARK AVE SOUTH,42.83222494,-78.82398423
AESCULUS GLABRA,PARK AVE SOUTH,42.83222781,-78.82834994
ACER SACCHARINUM,PARK AVE SOUTH,42.83223273,-78.82575812
AESCULUS HIPPOCASTANUM,PARK AVE SOUTH,42.83223899,-78.82867703
AESCULUS X CARNEA,PARK AVE SOUTH,42.83225091,-78.8285603
AESCULUS GLABRA,PARK AVE SOUTH,42.83225671,-78.82820834
AESCULUS X CARNEA,PARK AVE SOUTH,42.83226803,-78.82842323
AESCULUS HIPPOCASTANUM,PARK AVE SOUTH,42.83226887,-78.82871523
PLATANUS X ACERIFOLIA 'BLOODGOOD',PARK AVE SOUTH,42.83228429,-78.82379514
GLEDITSIA TRIACANTHOS INERMIS,PARK AVE SOUTH,42.83229153,-78.83001182
VACANT,PARK AVE SOUTH,42.83231372,-78.83234901
CRATAEGUS SPP,PARK AVE SOUTH,42.83231436,-78.82880111
CERCIS CANADENSIS,PARK AVE SOUTH,42.83233004,-78.83009654
FRAXINUS AMERICANA,PARK AVE SOUTH,42.8323354,-78.82958348
VACANT,PARK AVE SOUTH,42.83233568,-78.8323629
VACANT,PARK AVE SOUTH,42.83233655,-78.83236209
FRAXINUS PENNSYLVANICA,PARK AVE SOUTH,42.83233728,-78.83233858
CERCIS CANADENSIS,PARK AVE SOUTH,42.83233811,-78.83025199
AESCULUS X CARNEA,PARK AVE SOUTH,42.83233984,-78.82866579
GLEDITSIA TRIACANTHOS INERMIS,PARK AVE SOUTH,42.83234395,-78.82988403
PLATANUS X ACERIFOLIA 'BLOODGOOD',PARK AVE SOUTH,42.83235397,-78.82379298
AESCULUS X CARNEA,PARK AVE SOUTH,42.83235879,-78.82846016
CERCIS CANADENSIS,PARK AVE SOUTH,42.83237227,-78.83001442
CERCIS CANADENSIS,PARK AVE SOUTH,42.83238702,-78.83019733
CARYA OVATA,PARK AVE SOUTH,42.832415000000005,-78.8287235
VACANT,PARK AVE SOUTH,42.83242005,-78.82379809999999
TILIA CORDATA,PARK AVE SOUTH,42.83242095,-78.82879307
PLATANUS X ACERIFOLIA 'BLOODGOOD',PARK AVE SOUTH,42.83242146,-78.82398014
FRAXINUS PENNSYLVANICA,PARK AVE SOUTH,42.8324343,-78.83206864
FRAXINUS PENNSYLVANICA,PARK AVE SOUTH,42.83244046,-78.83210933
FRAXINUS PENNSYLVANICA,PARK AVE SOUTH,42.83247184,-78.83208198
FRAXINUS PENNSYLVANICA,PARK AVE SOUTH,42.83247202,-78.83211673
PLATANUS X ACERIFOLIA 'BLOODGOOD',PARK AVE SOUTH,42.832479,-78.82379832
PLATANUS X ACERIFOLIA 'BLOODGOOD',PARK AVE SOUTH,42.83248041,-78.82398037
VACANT,PARK AVE SOUTH,42.83250825,-78.82607936
VACANT,PARK AVE SOUTH,42.83250832,-78.82607798
FRAXINUS PENNSYLVANICA,PARK AVE SOUTH,42.83250979,-78.83227266
VACANT,PARK AVE SOUTH,42.8325548,-78.82616018
VACANT,PARK AVE SOUTH,42.83255608,-78.82616183
PLATANUS X ACERIFOLIA 'BLOODGOOD',PARK AVE SOUTH,42.83255941,-78.82379135
VACANT,PARK AVE SOUTH,42.83258982,-78.82725454
PLATANUS X ACERIFOLIA,PARK AVE SOUTH,42.83259652,-78.82398082
VACANT,PARK AVE SOUTH,42.83264483,-78.82631531
VACANT,PARK AVE SOUTH,42.83264501,-78.82631711
PLATANUS X ACERIFOLIA 'BLOODGOOD',PARK AVE SOUTH,42.83265727,-78.8239762
ACER PLATANOIDES,PARK AVE SOUTH,42.83267766,-78.82724788
QUERCUS ROBUR,PARK AVE SOUTH,42.83268267,-78.82378941
VACANT,PARK AVE SOUTH,42.83268976,-78.82651952
QUERCUS RUBRA,PARK AVE SOUTH,42.83270456,-78.82648298
PLATANUS X ACERIFOLIA 'BLOODGOOD',PARK AVE SOUTH,42.83273051,-78.82397648
ACER PLATANOIDES,PARK AVE SOUTH,42.832735299999996,-78.82720344
VACANT,PARK AVE SOUTH,42.83276181,-78.82649527
VACANT,PARK AVE SOUTH,42.83276262,-78.82649652
QUERCUS ROBUR,PARK AVE SOUTH,42.83277021,-78.82378732
ACER PLATANOIDES,PARK AVE SOUTH,42.83278839,-78.82711087
FRAXINUS AMERICANA,PARK AVE SOUTH,42.83280617,-78.82657799
ACER PLATANOIDES,PARK AVE SOUTH,42.83282892,-78.82703897
QUERCUS RUBRA,PARK AVE SOUTH,42.832857399999995,-78.82677234
POPULUS DELTOIDES,PARK AVE SOUTH,42.83286614,-78.82667281
QUERCUS RUBRA,PARK AVE SOUTH,42.8328778,-78.82681154
ACER PSEUDOPLATANUS,PARK AVE SOUTH,42.83290791,-78.82680552
VACANT,PARK AVE SOUTH,42.83292701,-78.82397967
FRAXINUS AMERICANA,PARK AVE SOUTH,42.83293158,-78.83216465
POPULUS DELTOIDES,PARK AVE SOUTH,42.83293474,-78.82676665
ACER PLATANOIDES 'CRIMSON KING',PARK AVE SOUTH,42.83295921,-78.82354273
ACER SACCHARINUM,PARK AVE SOUTH,42.8329655,-78.82340528
VACANT,PARK AVE SOUTH,42.83296614,-78.82367324
QUERCUS ROBUR,PARK AVE SOUTH,42.83310388,-78.82397308
QUERCUS ROBUR,PARK AVE SOUTH,42.83316105,-78.82397087
PLATANUS X ACERIFOLIA 'BLOODGOOD',PARK AVE SOUTH,42.83317037,-78.82378401
QUERCUS ROBUR,PARK AVE SOUTH,42.83337582,-78.82377753
PLATANUS X ACERIFOLIA 'BLOODGOOD',PARK AVE SOUTH,42.83342901,-78.82396948
QUERCUS ROBUR,PARK AVE SOUTH,42.83350583,-78.82396493
QUERCUS ROBUR,PARK AVE SOUTH,42.83350801,-78.82378047
QUERCUS ROBUR,PARK AVE SOUTH,42.83357014,-78.82396518
QUERCUS ROBUR,PARK AVE SOUTH,42.83360805,-78.82377843
QUERCUS ROBUR,PARK AVE SOUTH,42.83364517,-78.82396547
QUERCUS ROBUR,PARK AVE SOUTH,42.83371663,-78.82396332
QUERCUS ROBUR,PARK AVE SOUTH,42.83378987,-78.8239636
QUERCUS ROBUR,PARK AVE SOUTH,42.83379027,-78.82377428
QUERCUS ROBUR,PARK AVE SOUTH,42.83385599,-78.82395415
QUERCUS ROBUR,PARK AVE SOUTH,42.83396674,-78.82395458
QUERCUS ROBUR,PARK AVE SOUTH,42.83401357,-78.82377272
FRAXINUS AMERICANA,PARK AVE SOUTH,42.83403219,-78.83260375
QUERCUS ROBUR,PARK AVE SOUTH,42.83404,-78.82395001
QUERCUS BICOLOR,PARK AVE SOUTH,42.83407788,-78.82377297
VACANT,PARK AVE SOUTH,42.83413171,-78.82412095
ACER PLATANOIDES,PARK AVE SOUTH,42.83413697,-78.82438894
ACER PLATANOIDES,PARK AVE SOUTH,42.83413897,-78.82449753
ACER PSEUDOPLATANUS 'SPAETHII',PARK AVE SOUTH,42.83414098,-78.8246024
VACANT,PARK AVE SOUTH,42.83414421,-78.82477717
QUERCUS BICOLOR,PARK AVE SOUTH,42.83414577,-78.82377081
VACANT,PARK AVE SOUTH,42.83417434,-78.82707015
ACER PLATANOIDES,PARK AVE SOUTH,42.83414623,-78.8248783
ACER PLATANOIDES,PARK AVE SOUTH,42.83414808,-78.82497571
ACER PLATANOIDES,PARK AVE SOUTH,42.83415904,-78.82555456
ACER PLATANOIDES,PARK AVE SOUTH,42.83416073,-78.82564778
VACANT,PARK AVE SOUTH,42.83416242,-78.82573726
VACANT,PARK AVE SOUTH,42.83416306,-78.82600523
ACER RUBRUM,PARK AVE SOUTH,42.834164,-78.82653091
VACANT,PARK AVE SOUTH,42.83416412,-78.82582628
VACANT,PARK AVE SOUTH,42.8341646,-78.82608725
VACANT,PARK AVE SOUTH,42.83416554,-78.82661201
VACANT,PARK AVE SOUTH,42.8341671,-78.82668611
VACANT,PARK AVE SOUTH,42.83416724,-78.82645636
VACANT,PARK AVE SOUTH,42.83416753,-78.82624245
VACANT,PARK AVE SOUTH,42.83416848,-78.82676394
VACANT,PARK AVE SOUTH,42.83416892,-78.82631283
VACANT,PARK AVE SOUTH,42.83417003,-78.82684084
VACANT,PARK AVE SOUTH,42.834171399999995,-78.82691914
VACANT,PARK AVE SOUTH,42.8341728,-78.82698905
VACANT,PARK AVE SOUTH,42.83417573,-78.82714052
VACANT,PARK AVE SOUTH,42.83417712,-78.82721462
VACANT,PARK AVE SOUTH,42.83417973,-78.82735817
VACANT,PARK AVE SOUTH,42.83418296,-78.82729154
VACANT,PARK AVE SOUTH,42.83421975,-78.82425085
VACANT,PARK AVE SOUTH,42.83422654,-78.82436459
QUERCUS BICOLOR,PARK AVE SOUTH,42.83426011,-78.82376639
QUERCUS BICOLOR,PARK AVE SOUTH,42.83434586,-78.8237643
QUERCUS BICOLOR,PARK AVE SOUTH,42.83441691,-78.82395875
QUERCUS ROBUR,PARK AVE SOUTH,42.834445200000005,-78.82375153
QUERCUS BICOLOR,PARK AVE SOUTH,42.83454731,-78.82395926
PLATANUS X ACERIFOLIA 'BLOODGOOD',PARK AVE SOUTH,42.83462234,-78.82396198
VACANT,PARK AVE SOUTH,42.83473869,-78.82359996
QUERCUS BICOLOR,PARK AVE SOUTH,42.83478491,-78.82395775
ACER SACCHARINUM,PARK AVE SOUTH,42.83486782,-78.82352216
ACER PLATANOIDES,PARK AVE SOUTH,42.83487475,-78.82365268
QUERCUS BICOLOR,PARK AVE SOUTH,42.83494075,-78.82375447
QUERCUS BICOLOR,PARK AVE SOUTH,42.83496177,-78.82395359
QUERCUS BICOLOR,PARK AVE SOUTH,42.83502293,-78.82375479
QUERCUS BICOLOR,PARK AVE SOUTH,42.83504038,-78.82395146
QUERCUS BICOLOR,PARK AVE SOUTH,42.83510153,-78.82375509
QUERCUS BICOLOR,PARK AVE SOUTH,42.83515114,-78.82394947
QUERCUS BICOLOR,PARK AVE SOUTH,42.83525339,-78.8237484
QUERCUS BICOLOR,PARK AVE SOUTH,42.8353552,-78.82375122
QUERCUS BICOLOR,PARK AVE SOUTH,42.835408799999996,-78.82375143
VACANT,PARK AVE SOUTH,42.83541871,-78.82455517
VACANT,PARK AVE SOUTH,42.83541903,-78.82481056
VACANT,PARK AVE SOUTH,42.83542519,-78.82489913
VACANT,PARK AVE SOUTH,42.835426899999995,-78.82498209
VACANT,PARK AVE SOUTH,42.83542828,-78.82506086
POPULUS DELTOIDES,PARK AVE SOUTH,42.83542992,-78.82519684
VACANT,PARK AVE SOUTH,42.83543014,-78.82515407
VACANT,PARK AVE SOUTH,42.83543385,-78.8255917
VACANT,PARK AVE SOUTH,42.83544002,-78.82567468
VACANT,PARK AVE SOUTH,42.83544109,-78.82573433
VACANT,PARK AVE SOUTH,42.83544234,-78.82579306
VACANT,PARK AVE SOUTH,42.83544373,-78.8258667
VACANT,PARK AVE SOUTH,42.83544511,-78.8259408
VACANT,PARK AVE SOUTH,42.83544634,-78.82600932
VACANT,PARK AVE SOUTH,42.83544774,-78.82631924
VACANT,PARK AVE SOUTH,42.83544959,-78.82617617
VACANT,PARK AVE SOUTH,42.83545097,-78.82625028
VACANT,PARK AVE SOUTH,42.83545281,-78.82611234
VACANT,PARK AVE SOUTH,42.8354536,-78.82638777
VACANT,PARK AVE SOUTH,42.83545483,-78.82645115
VACANT,PARK AVE SOUTH,42.83549174,-78.82318297
VACANT,PARK AVE SOUTH,42.83549451,-78.82308977
VACANT,PARK AVE SOUTH,42.83549467,-78.82333864
QUERCUS BICOLOR,PARK AVE SOUTH,42.83559122,-78.82394638
TILIA CORDATA,PARK AVE SOUTH,42.83561057,-78.82351525
VACANT,PARK AVE SOUTH,42.83563613,-78.82367567
QUERCUS BICOLOR,PARK AVE SOUTH,42.8356923,-78.82394029999999
QUERCUS BICOLOR,PARK AVE SOUTH,42.83577283,-78.82393974
QUERCUS ROBUR,PARK AVE SOUTH,42.83581075,-78.82374328
QUERCUS BICOLOR,PARK AVE SOUTH,42.83586394,-78.82393767
QUERCUS BICOLOR,PARK AVE SOUTH,42.8358983,-78.82373876
STUMP,PARK AVE SOUTH,42.83598761,-78.82374154
QUERCUS BICOLOR,PARK AVE SOUTH,42.83599078,-78.8239333
QUERCUS BICOLOR,PARK AVE SOUTH,42.83611048,-78.82392891
STUMP,PARK AVE SOUTH,42.83611087,-78.82374201
GINKGO BILOBA 'MAGYAR',PARK AVE SOUTH,42.8361859,-78.82374229999999
QUERCUS BICOLOR,PARK AVE SOUTH,42.83622124,-78.82392449
VACANT,PARK AVE SOUTH,42.83625556,-78.823745
GINKGO BILOBA 'MAGYAR',PARK AVE SOUTH,42.83628734,-78.82392475
VACANT,PARK AVE SOUTH,42.83632284,-78.8233288
VACANT,PARK AVE SOUTH,42.83632545,-78.82322721
VACANT,PARK AVE SOUTH,42.83637986,-78.82418794
VACANT,PARK AVE SOUTH,42.83638155,-78.82428022
ACER PLATANOIDES 'CRIMSON KING',PARK AVE SOUTH,42.836383399999995,-78.82437577
VACANT,PARK AVE SOUTH,42.83646972,-78.82418549
VACANT,PARK AVE SOUTH,42.83647189,-78.82429642
SYRINGA RETICULATA 'IVORY SILK',PARK AVE SOUTH,42.83655888,-78.82392337
SYRINGA RETICULATA 'IVORY SILK',PARK AVE SOUTH,42.83655896,-78.82373419
SYRINGA RETICULATA 'IVORY SILK',PARK AVE SOUTH,42.83663804,-78.82392736
SYRINGA RETICULATA 'IVORY SILK',PARK AVE SOUTH,42.83666957,-78.82372531
SYRINGA RETICULATA 'IVORY SILK',PARK AVE SOUTH,42.83670536,-78.82392151
SYRINGA RETICULATA 'IVORY SILK',PARK AVE SOUTH,42.83676794,-78.82372204
SYRINGA RETICULATA 'IVORY SILK',PARK AVE SOUTH,42.83678218,-78.82392181
GLEDITSIA TRIACANTHOS,PARK AVE SOUTH,42.83683139,-78.82322584
QUERCUS BICOLOR,PARK AVE SOUTH,42.83686834,-78.8237231
VACANT,PARK AVE SOUTH,42.83687311,-78.82391652
PLATANUS X ACERIFOLIA 'BLOODGOOD',PARK AVE SOUTH,42.83700013,-78.82391779999999
GINKGO BILOBA 'AUTUMN GOLD',PARK AVE SOUTH,42.83710236,-78.82372401
PLATANUS X ACERIFOLIA 'BLOODGOOD',PARK AVE SOUTH,42.83711625,-78.82391582
VACANT,PARK AVE SOUTH,42.83717426,-78.8233512
VACANT,PARK AVE SOUTH,42.83717719,-78.82350594
VACANT,PARK AVE SOUTH,42.83719786,-78.82411794
VACANT,PARK AVE SOUTH,42.83720077,-78.82403547
VACANT,PARK AVE SOUTH,42.83720249,-78.8243631
VACANT,PARK AVE SOUTH,42.83720387,-78.82419673
VACANT,PARK AVE SOUTH,42.83720541,-78.82427969
VACANT,PARK AVE SOUTH,42.83727005,-78.8243657
VACANT,PARK AVE SOUTH,42.83728337,-78.8231666
VACANT,PARK AVE SOUTH,42.83728432,-78.82345322
GINKGO BILOBA 'AUTUMN GOLD',PARK AVE SOUTH,42.83734672,-78.82390215
PLATANUS X ACERIFOLIA 'BLOODGOOD',PARK AVE SOUTH,42.83734709,-78.82372739
VACANT,PARK AVE SOUTH,42.83741854,-78.82372766
PLATANUS X ACERIFOLIA 'BLOODGOOD',PARK AVE SOUTH,42.83741996,-78.82390244
PLATANUS X ACERIFOLIA 'BLOODGOOD',PARK AVE SOUTH,42.83748822,-78.82372308
PLATANUS X ACERIFOLIA 'BLOODGOOD',PARK AVE SOUTH,42.83756504,-78.82372095
PLATANUS X ACERIFOLIA 'BLOODGOOD',PARK AVE SOUTH,42.83758252,-78.82390550000001
PLATANUS X ACERIFOLIA 'BLOODGOOD',PARK AVE SOUTH,42.8376365,-78.82372123
PLATANUS X ACERIFOLIA 'BLOODGOOD',PARK AVE SOUTH,42.837689700000006,-78.82390591
PLATANUS X ACERIFOLIA 'BLOODGOOD',PARK AVE SOUTH,42.837715100000004,-78.82372153
VACANT,PARK AVE SOUTH,42.83782727,-78.82389674
PLATANUS X ACERIFOLIA 'BLOODGOOD',PARK AVE SOUTH,42.83786696,-78.82371484
PLATANUS X ACERIFOLIA 'BLOODGOOD',PARK AVE SOUTH,42.83789158,-78.82389699
VACANT,PARK AVE SOUTH,42.83801667,-78.82455782
VACANT,PARK AVE SOUTH,42.83809799,-78.82315437
VACANT,PARK AVE SOUTH,42.83809817,-78.82339719
STUMP,PARK AVE SOUTH,42.83815815,-78.82371111
PLATANUS X ACERIFOLIA 'BLOODGOOD',PARK AVE SOUTH,42.83815954,-78.82390045
PLATANUS X ACERIFOLIA 'BLOODGOOD',PARK AVE SOUTH,42.83823636,-78.8238959
PLATANUS X ACERIFOLIA 'BLOODGOOD',PARK AVE SOUTH,42.83829214,-78.82370677
PLATANUS X ACERIFOLIA 'BLOODGOOD',PARK AVE SOUTH,42.83833462,-78.82389142
STUMP,PARK AVE SOUTH,42.83836717,-78.82370464
PLATANUS X ACERIFOLIA 'BLOODGOOD',PARK AVE SOUTH,42.83849361,-78.82388961
PLATANUS X ACERIFOLIA 'BLOODGOOD',PARK AVE SOUTH,42.83856685,-78.82389232
PLATANUS X ACERIFOLIA 'BLOODGOOD',PARK AVE SOUTH,42.83857974,-78.82371032
PLATANUS X ACERIFOLIA 'BLOODGOOD',PARK AVE SOUTH,42.83863474,-78.82389016
PLATANUS X ACERIFOLIA 'BLOODGOOD',PARK AVE SOUTH,42.83870441,-78.823888
PHELLODENDRON AMURENSE,PARK AVE SOUTH,42.83884217,-78.82322539
PHELLODENDRON AMURENSE,PARK AVE SOUTH,42.838843100000005,-78.82306358
PLATANUS X ACERIFOLIA 'BLOODGOOD',PARK AVE SOUTH,42.83886877,-78.82388621
PLATANUS X ACERIFOLIA 'BLOODGOOD',PARK AVE SOUTH,42.83901206,-78.82370228
PLATANUS X ACERIFOLIA 'BLOODGOOD',PARK AVE SOUTH,42.83905456,-78.82388208
PLATANUS X ACERIFOLIA 'BLOODGOOD',PARK AVE SOUTH,42.83908352,-78.82370256
STUMP,PARK AVE SOUTH,42.83914389,-78.82387757
PLATANUS X ACERIFOLIA 'BLOODGOOD',PARK AVE SOUTH,42.83918377,-78.82369332
VACANT,PARK AVE SOUTH,42.83924608,-78.82370076
STUMP,PARK AVE SOUTH,42.83927252,-78.82387321
STUMP,PARK AVE SOUTH,42.83934755,-78.8238735
STUMP,PARK AVE SOUTH,42.83942437,-78.82387137
PLATANUS X ACERIFOLIA 'BLOODGOOD',PARK AVE SOUTH,42.83945153,-78.8236967
STUMP,PARK AVE SOUTH,42.83949047,-78.8238692
STUMP,PARK AVE SOUTH,42.83954942,-78.82386943
MALUS SPP,PARK AVE SOUTH,42.83965607,-78.82333422
VACANT,PARK AVE SOUTH,42.83972323,-78.82332107
PLATANUS X ACERIFOLIA 'BLOODGOOD',PARK AVE SOUTH,42.839762,-78.82387026
STUMP,PARK AVE SOUTH,42.83980346,-78.82369079
PLATANUS X ACERIFOLIA 'BLOODGOOD',PARK AVE SOUTH,42.83984239,-78.82386814
QUERCUS ROBUR,PARK AVE SOUTH,42.8399035,-78.82369117
SYRINGA RETICULATA 'IVORY SILK',PARK AVE SOUTH,42.83992457,-78.82386603
ACER MIYABEI 'MORTON',PARK AVE SOUTH,42.84001783,-78.82369162
VACANT,PARK AVE SOUTH,42.84002485,-78.82432467
VACANT,PARK AVE SOUTH,42.84002683,-78.82419604
SYRINGA RETICULATA 'IVORY SILK',PARK AVE SOUTH,42.84010179,-78.82368952
QUERCUS BICOLOR,PARK AVE SOUTH,42.8402263,-78.82387523
SYRINGA RETICULATA 'IVORY SILK',PARK AVE SOUTH,42.84024901,-78.82368044
VACANT,PARK AVE SOUTH,42.84030367,-78.82368302
QUERCUS BICOLOR,PARK AVE SOUTH,42.84038732,-78.8238718
QUERCUS BICOLOR,PARK AVE SOUTH,42.84049087,-78.82385852
PLATANUS X ACERIFOLIA 'BLOODGOOD',PARK AVE SOUTH,42.84060341,-78.82385896
PLATANUS X ACERIFOLIA 'BLOODGOOD',PARK AVE SOUTH,42.84069849,-78.82366998
QUERCUS BICOLOR,PARK AVE SOUTH,42.84076815,-78.82367268
QUERCUS BICOLOR,PARK AVE SOUTH,42.84090658,-78.82365300000001
PLATANUS X ACERIFOLIA 'BLOODGOOD',PARK AVE SOUTH,42.84100895,-78.82384596
PLATANUS X ACERIFOLIA 'BLOODGOOD',PARK AVE SOUTH,42.84108576,-78.82384869
STUMP,PARK AVE SOUTH,42.84115008,-78.82384651
QUERCUS BICOLOR,PARK AVE SOUTH,42.84125369,-78.82384691
QUERCUS BICOLOR,PARK AVE SOUTH,42.84131443,-78.82384472
VACANT,PARK AVE SOUTH,42.84142157,-78.82397905
QUERCUS BICOLOR,PARK AVE SOUTH,42.8414601,-78.82384114
QUERCUS BICOLOR,PARK AVE SOUTH,42.841502399999996,-78.8236561
PLATANUS X ACERIFOLIA 'BLOODGOOD',PARK AVE SOUTH,42.84154131,-78.82384075
ACER SACCHARINUM,PARK AVE SOUTH,42.84165072,-78.8241124
VACANT,PARK AVE SOUTH,42.84165241,-78.82420236
ACER SACCHARINUM,PARK AVE SOUTH,42.84173842,-78.82399435
ACER SACCHARINUM,PARK AVE SOUTH,42.84174132,-78.82424996
QUERCUS BICOLOR,PARK AVE SOUTH,42.84183467,-78.82365254
PLATANUS X ACERIFOLIA 'BLOODGOOD',PARK AVE SOUTH,42.84184143,-78.82383948
SYRINGA RETICULATA 'IVORY SILK',PARK AVE SOUTH,42.84190753,-78.82383488
PLATANUS X ACERIFOLIA 'BLOODGOOD',PARK AVE SOUTH,42.84199686,-78.82383279999999
VACANT,PARK AVE SOUTH,42.84201866,-78.82333406
VACANT,PARK AVE SOUTH,42.84202512,-78.82344129
PLATANUS X ACERIFOLIA 'BLOODGOOD',PARK AVE SOUTH,42.84206117,-78.82383305
PLATANUS X ACERIFOLIA 'BLOODGOOD',PARK AVE SOUTH,42.84217728,-78.82383349999999
SYRINGA RETICULATA 'IVORY SILK',PARK AVE SOUTH,42.84223305,-78.82364922
SYRINGA RETICULATA 'IVORY SILK',PARK AVE SOUTH,42.84232059,-78.82364714
SYRINGA RETICULATA 'IVORY SILK',PARK AVE SOUTH,42.84239701,-78.82383435
PLATANUS X ACERIFOLIA 'BLOODGOOD',PARK AVE SOUTH,42.84241348,-78.82364749999999
VACANT,PARK AVE SOUTH,42.84246365,-78.82400555
PLATANUS X ACERIFOLIA 'BLOODGOOD',PARK AVE SOUTH,42.84248984,-78.82364091
GLEDITSIA TRIACANTHOS,PARK AVE SOUTH,42.84255262,-78.82399638
GLEDITSIA TRIACANTHOS,PARK AVE SOUTH,42.8425559,-78.82413558
GLEDITSIA TRIACANTHOS,PARK AVE SOUTH,42.84255606,-78.82405789
GLEDITSIA TRIACANTHOS,PARK AVE SOUTH,42.84255691,-78.82422135
GLEDITSIA TRIACANTHOS,PARK AVE SOUTH,42.84255796,-78.82428771
GLEDITSIA TRIACANTHOS,PARK AVE SOUTH,42.84255901,-78.82435569
GLEDITSIA TRIACANTHOS,PARK AVE SOUTH,42.84256567,-78.82458552
GLEDITSIA TRIACANTHOS,PARK AVE SOUTH,42.8425667,-78.82466321
VACANT,PARK AVE SOUTH,42.84263912,-78.82382941
SYRINGA RETICULATA 'IVORY SILK',PARK AVE SOUTH,42.84266141,-78.8238281
VACANT,PARK AVE SOUTH,42.84268852,-78.82382401
PLATANUS X ACERIFOLIA 'BLOODGOOD',PARK AVE SOUTH,42.84274253,-78.82382609
PLATANUS X ACERIFOLIA 'BLOODGOOD',PARK AVE SOUTH,42.84275291,-78.82364153
VACANT,PARK AVE SOUTH,42.8428236,-78.82352222
VACANT,PARK AVE SOUTH,42.84282514,-78.82336282
PLATANUS X ACERIFOLIA 'BLOODGOOD',PARK AVE SOUTH,42.84283111,-78.82383118
PLATANUS X ACERIFOLIA 'BLOODGOOD',PARK AVE SOUTH,42.84291864,-78.82383152
VACANT,PARK AVE SOUTH,42.84295501,-78.82309298
ULMUS AMERICANA,PARK AVE SOUTH,42.84295717,-78.82320532
ULMUS AMERICANA,PARK AVE SOUTH,42.84295841,-78.82327198
ULMUS AMERICANA,PARK AVE SOUTH,42.84295885,-78.82305898
VACANT,PARK AVE SOUTH,42.84295995,-78.82335588
ULMUS AMERICANA,PARK AVE SOUTH,42.84296054,-78.82315173
ACER NEGUNDO,PARK AVE SOUTH,42.84296088,-78.82339923
STANDING BUTT,PARK AVE SOUTH,42.84296117,-78.82318203
ULMUS AMERICANA,PARK AVE SOUTH,42.84296209,-78.82323051
ULMUS AMERICANA,PARK AVE SOUTH,42.84296471,-78.82312845
SYRINGA RETICULATA 'IVORY SILK',PARK AVE SOUTH,42.84301909,-78.82363528
PLATANUS X ACERIFOLIA 'BLOODGOOD',PARK AVE SOUTH,42.84311375,-78.82364293
STUMP,PARK AVE SOUTH,42.84312408,-78.82382989
SYRINGA RETICULATA,PARK AVE SOUTH,42.84321023,-78.82363845
SYRINGA RETICULATA 'IVORY SILK',PARK AVE SOUTH,42.84327633,-78.8236387
VACANT,PARK AVE SOUTH,42.84328799,-78.82426371
VACANT,PARK AVE SOUTH,42.84329537,-78.82418077
VACANT,PARK AVE SOUTH,42.84336323,-78.82396104
VACANT,PARK AVE SOUTH,42.84336523,-78.82406825
SYRINGA RETICULATA 'IVORY SILK',PARK AVE SOUTH,42.84338173,-78.82363426
STUMP,PARK AVE SOUTH,42.8434385,-78.82382383
PLATANUS X ACERIFOLIA,PARK AVE SOUTH,42.84344246,-78.82363935
SYRINGA RETICULATA 'IVORY SILK',PARK AVE SOUTH,42.84350828,-78.82363635
SYRINGA RETICULATA 'IVORY SILK',PARK AVE SOUTH,42.84355105,-78.82381941
VACANT,PARK AVE SOUTH,42.84355871,-78.82363897
SYRINGA RETICULATA 'IVORY SILK',PARK AVE SOUTH,42.84369397,-78.82381754
QUERCUS BICOLOR,PARK AVE SOUTH,42.84376006,-78.82382022
QUERCUS BICOLOR,PARK AVE SOUTH,42.84383687,-78.82382052
GINKGO BILOBA 'AUTUMN GOLD',PARK AVE SOUTH,42.84385335,-78.8236288
QUERCUS BICOLOR,PARK AVE SOUTH,42.84392619,-78.82382086
GINKGO BILOBA 'AUTUMN GOLD',PARK AVE SOUTH,42.84398441,-78.82363694
STUMP,PARK AVE SOUTH,42.84406826,-78.82363082
VACANT,PARK AVE SOUTH,42.84412257,-78.82363045
GINKGO BILOBA 'AUTUMN GOLD',PARK AVE SOUTH,42.84414386,-78.82363069
ACER PLATANOIDES,PARK AVE SOUTH,42.84418002,-78.82339931
ACER SACCHARINUM,PARK AVE SOUTH,42.84418558,-78.82310485
ACER SACCHARINUM,PARK AVE SOUTH,42.84422273,-78.82310833
GINKGO BILOBA 'AUTUMN GOLD',PARK AVE SOUTH,42.84425999,-78.82362628
CRATEGUS VIRDIS 'WINTER KING',PARK AVE SOUTH,42.84433341,-78.82362709
VACANT,PARK AVE SOUTH,42.84446332,-78.82332907
PLATANUS X ACERIFOLIA 'BLOODGOOD',PARK AVE SOUTH,42.84466551,-78.823623
SYRINGA RETICULATA 'IVORY SILK',PARK AVE SOUTH,42.84471156,-78.82381011
GLEDITSIA TRIACANTHOS INERMIS 'SHADEMASTER',PARK AVE SOUTH,42.84479195,-78.82381042
GLEDITSIA TRIACANTHOS INERMIS 'SHADEMASTER',PARK AVE SOUTH,42.84485949,-78.82363077
VACANT,PARK AVE SOUTH,42.8449238,-78.82363102
VACANT,PARK AVE SOUTH,42.84492555,-78.82419829
VACANT,PARK AVE SOUTH,42.84492615,-78.82399507
VACANT,PARK AVE SOUTH,42.84492801,-78.82409063
QUERCUS BICOLOR,PARK AVE SOUTH,42.84502462,-78.82361899
GLEDITSIA TRIACANTHOS INERMIS 'SHADEMASTER',PARK AVE SOUTH,42.84510138,-78.82362469
GLEDITSIA TRIACANTHOS INERMIS 'SHADEMASTER',PARK AVE SOUTH,42.84518178,-78.82362014
PLATANUS X ACERIFOLIA 'BLOODGOOD',PARK AVE SOUTH,42.84524034,-78.82380973
PLATANUS X ACERIFOLIA 'BLOODGOOD',PARK AVE SOUTH,42.84546911,-78.82361781
PLATANUS X ACERIFOLIA 'BLOODGOOD',PARK AVE SOUTH,42.84551009,-78.82380349
PLATANUS X ACERIFOLIA 'BLOODGOOD',PARK AVE SOUTH,42.84554085,-78.82361668
PLATANUS X ACERIFOLIA 'BLOODGOOD',PARK AVE SOUTH,42.84566099,-78.82362296
VACANT,PARK AVE SOUTH,42.84567623,-78.82380171
POPULUS DELTOIDES,PARK AVE SOUTH,42.84571068,-78.82304397
PLATANUS X ACERIFOLIA 'BLOODGOOD',PARK AVE SOUTH,42.84576222,-78.82361712
VACANT,PARK AVE SOUTH,42.845772700000005,-78.82380208
PLATANUS X ACERIFOLIA 'BLOODGOOD',PARK AVE SOUTH,42.84582668,-78.82361536
VACANT,PARK AVE SOUTH,42.84584682,-78.82361709999999
ACER CAMPESTRE,PARK AVE SOUTH,42.84586253,-78.82398752
ACER CAMPESTRE,PARK AVE SOUTH,42.84586485,-78.82410732
VACANT,PARK AVE SOUTH,42.845867,-78.82422339
VACANT,PARK AVE SOUTH,42.84586917,-78.82433573
ACER SACCHARINUM,PARK AVE SOUTH,42.84587133,-78.82444761
QUERCUS ROBUR,PARK AVE SOUTH,42.84593208,-78.82361577
VACANT,PARK AVE SOUTH,42.84594689,-78.82439896
ACER SACCHARINUM,PARK AVE SOUTH,42.84595181,-78.82417944
ACER SACCHARINUM,PARK AVE SOUTH,42.84595366,-78.82427873
VACANT,PARK AVE SOUTH,42.84602854,-78.82361614
QUERCUS ROBUR,PARK AVE SOUTH,42.84603352,-78.82379824
VACANT,PARK AVE SOUTH,42.84609811,-78.82311259999999
QUERCUS ROBUR,PARK AVE SOUTH,42.84612641,-78.82379859999999
VACANT,PARK AVE SOUTH,42.846202000000005,-78.82312885
QUERCUS ROBUR,PARK AVE SOUTH,42.84624968,-78.82379422
QUERCUS ROBUR,PARK AVE SOUTH,42.84630366,-78.82361235
QUERCUS BICOLOR,PARK AVE SOUTH,42.846339,-78.823797
QUERCUS ROBUR,PARK AVE SOUTH,42.84636797,-78.82361018
QUERCUS ROBUR,PARK AVE SOUTH,42.84641401,-78.82380214
QUERCUS BICOLOR,PARK AVE SOUTH,42.8464305,-78.82360799
QUERCUS BICOLOR,PARK AVE SOUTH,42.84649261,-78.82380245
QUERCUS BICOLOR,PARK AVE SOUTH,42.84650196,-78.82360584
QUERCUS ROBUR,PARK AVE SOUTH,42.84657479,-78.82380034
PLATANUS X ACERIFOLIA 'BLOODGOOD',PARK AVE SOUTH,42.84658413,-78.82360616
GLEDITSIA TRIACANTHOS,PARK AVE SOUTH,42.84667841,-78.82379831
QUERCUS ROBUR,PARK AVE SOUTH,42.84675164,-78.82380103
QUERCUS BICOLOR,PARK AVE SOUTH,42.84676278,-78.82360200000001
ACER RUBRUM,PARK AVE SOUTH,42.84701852,-78.82392908
GLEDITSIA TRIACANTHOS,PARK AVE SOUTH,42.84701962,-78.82422134
VACANT,PARK AVE SOUTH,42.84702071,-78.82451641
ACER RUBRUM,PARK AVE SOUTH,42.84702132,-78.82430898
ACER RUBRUM,PARK AVE SOUTH,42.84702317,-78.82440921
GLEDITSIA TRIACANTHOS,PARK AVE SOUTH,42.84706467,-78.82360559
PLATANUS X ACERIFOLIA 'BLOODGOOD',PARK AVE SOUTH,42.84710001,-78.82379024
PLATANUS X ACERIFOLIA 'BLOODGOOD',PARK AVE SOUTH,42.84713613,-78.82360587
VACANT,PARK AVE SOUTH,42.84717146,-78.82379294
PLATANUS X ACERIFOLIA 'BLOODGOOD',PARK AVE SOUTH,42.84721831,-78.82360376
PLATANUS X ACERIFOLIA 'BLOODGOOD',PARK AVE SOUTH,42.84725722,-78.82378842
PLATANUS X ACERIFOLIA 'BLOODGOOD',PARK AVE SOUTH,42.84734514,-78.82360182
PLATANUS X ACERIFOLIA 'BLOODGOOD',PARK AVE SOUTH,42.847391200000004,-78.82378651
VACANT,PARK AVE SOUTH,42.8474166,-78.82360209999999
PLATANUS X ACERIFOLIA 'BLOODGOOD',PARK AVE SOUTH,42.84746444,-78.82378680000001
GINKGO BILOBA 'MAGYAR',PARK AVE SOUTH,42.84750413,-78.82360244
PLATANUS X ACERIFOLIA 'BLOODGOOD',PARK AVE SOUTH,42.84753591,-78.82378465
GINKGO BILOBA 'MAGYAR',PARK AVE SOUTH,42.84760238,-78.82360282
PLATANUS X ACERIFOLIA 'BLOODGOOD',PARK AVE SOUTH,42.84761272,-78.82378494
VACANT,PARK AVE SOUTH,42.84768775,-78.82378281
MALUS 'HARVEST GOLD',PARK AVE SOUTH,42.84770663,-78.82333895
PLATANUS X ACERIFOLIA 'BLOODGOOD',PARK AVE SOUTH,42.84777172,-78.82378071
QUERCUS BICOLOR,PARK AVE SOUTH,42.84794897,-78.82358959999999
VACANT,PARK AVE SOUTH,42.84805932,-78.82378425
QUERCUS BICOLOR,PARK AVE SOUTH,42.84805973,-78.82359003
VACANT,PARK AVE SOUTH,42.84814864,-78.82378217
QUERCUS BICOLOR,PARK AVE SOUTH,42.84824729,-78.82359318
VACANT,PARK AVE SOUTH,42.84827726,-78.82378267
QUERCUS BICOLOR,PARK AVE SOUTH,42.84834554,-78.82359356
QUERCUS BICOLOR,PARK AVE SOUTH,42.84839874,-78.82378071
QUERCUS BICOLOR,PARK AVE SOUTH,42.84842236,-78.82359386
GLEDITSIA TRIACANTHOS,PARK AVE SOUTH,42.8484845,-78.82377619
GLEDITSIA TRIACANTHOS,PARK AVE SOUTH,42.84850454,-78.82359175
VACANT,PARK AVE SOUTH,42.84852979,-78.82358921
GLEDITSIA TRIACANTHOS,PARK AVE SOUTH,42.84856489,-78.82377650000001
VACANT,PARK AVE SOUTH,42.84860388,-78.82324116
VACANT,PARK AVE SOUTH,42.84860557,-78.82333579
VACANT,PARK AVE SOUTH,42.84869883,-78.82326763
GLEDITSIA TRIACANTHOS,PARK AVE SOUTH,42.84870243,-78.82377946
GINKGO BILOBA 'MAGYAR',PARK AVE SOUTH,42.84875966,-78.82359797
STUMP,PARK AVE SOUTH,42.84881472,-78.82359538
QUERCUS BICOLOR,PARK AVE SOUTH,42.84885071,-78.82377761
GINKGO BILOBA 'MAGYAR',PARK AVE SOUTH,42.84890641,-78.82359657
GLEDITSIA TRIACANTHOS,PARK AVE SOUTH,42.84893646,-78.82377551
GINKGO BILOBA 'MAGYAR',PARK AVE SOUTH,42.84898216,-78.82359117
QUERCUS BICOLOR,PARK AVE SOUTH,42.84904007,-78.82377591
PLATANUS X ACERIFOLIA 'BLOODGOOD',PARK AVE SOUTH,42.84905926,-78.82359371
QUERCUS BICOLOR,PARK AVE SOUTH,42.84910974,-78.82377618
QUERCUS BICOLOR,PARK AVE SOUTH,42.84912979,-78.82358446
QUERCUS MACROCARPA,PARK AVE SOUTH,42.84918655,-78.82377648
QUERCUS BICOLOR,PARK AVE SOUTH,42.84924193,-78.8237767
GLEDITSIA TRIACANTHOS,PARK AVE SOUTH,42.84925841,-78.82358253
QUERCUS BICOLOR,PARK AVE SOUTH,42.8493541,-78.82377556
VACANT,PARK AVE SOUTH,42.84942813,-78.82357834
GINKGO BILOBA 'MAGYAR',PARK AVE SOUTH,42.84949499,-78.82358095
PLATANUS X ACERIFOLIA 'BLOODGOOD',PARK AVE SOUTH,42.84975259,-78.82389521
VACANT,PARK AVE SOUTH,42.84978443,-78.82447355
QUERCUS BICOLOR,PARK AVE SOUTH,42.84999337,-78.82407581
VACANT,PARK AVE SOUTH,42.85005935,-78.82413191
SYRINGA RETICULATA 'IVORY SILK',PARK AVE SOUTH,42.8501307,-78.82418317
SYRINGA RETICULATA 'IVORY SILK',PARK AVE SOUTH,42.85023057,-78.82426125
SYRINGA RETICULATA 'IVORY SILK',PARK AVE SOUTH,42.85029122,-78.82430276
SYRINGA RETICULATA 'IVORY SILK',PARK AVE SOUTH,42.85035365,-78.82434913
QUERCUS BICOLOR,PARK AVE SOUTH,42.85043035,-78.82440284
QUERCUS BICOLOR,PARK AVE SOUTH,42.850480299999994,-78.82443702
SYRINGA RETICULATA 'IVORY SILK',PARK AVE SOUTH,42.85058553,-78.8245127
VACANT,PARK AVE SOUTH,42.85058952,-78.82431606
MAACKIA AMURENSIS,PARK AVE SOUTH,42.85059277,-78.82483703
MAACKIA AMURENSIS,PARK AVE SOUTH,42.85062709,-78.82474627
VACANT,PARK AVE SOUTH,42.85069619,-78.82483324
VACANT,PARK AVE SOUTH,42.85072604,-78.82474758
GLEDITSIA TRIACANTHOS INERMIS 'SUNBURST',PARK AVE SOUTH,42.85072752,-78.82441099
PYRUS CALLERYANA,PARK AVE SOUTH,42.85077005,-78.82444895
SYRINGA RETICULATA 'IVORY SILK',PARK AVE SOUTH,42.85083166,-78.8247006
SYRINGA RETICULATA 'IVORY SILK',PARK AVE SOUTH,42.85083211,-78.82448938
VACANT,PARK AVE SOUTH,42.85092085,-78.82476165
GYMNOCLADUS DIOICUS,PARK AVE SOUTH,42.85094762,-78.82456715
STUMP,PARK AVE SOUTH,42.85098506,-78.82481045
ACER PLATANOIDES,PARK AVE SOUTH,42.851018100000005,-78.82462799
PLATANUS X ACERIFOLIA 'BLOODGOOD',PARK AVE SOUTH,42.85102085,-78.82462427
SYRINGA RETICULATA 'IVORY SILK',PARK AVE SOUTH,42.85107602,-78.82487879
PLATANUS X ACERIFOLIA 'BLOODGOOD',PARK AVE SOUTH,42.85113007,-78.82469648
PLATANUS X ACERIFOLIA,PARK AVE SOUTH,42.85114559,-78.82492519
VACANT,PARK AVE SOUTH,42.85120079,-78.82476528
PLATANUS X ACERIFOLIA,PARK AVE SOUTH,42.85123653,-78.82500324
PLATANUS X ACERIFOLIA,PARK AVE SOUTH,42.85125484,-78.82479451
GLEDITSIA TRIACANTHOS INERMIS 'SUNBURST',PARK AVE SOUTH,42.85132083,-78.82484575
PLATANUS X ACERIFOLIA,PARK AVE SOUTH,42.85133464,-78.82507403
VACANT,PARK AVE SOUTH,42.85136388,-78.82488178
VACANT,PARK AVE SOUTH,42.85137065,-78.82549268
VACANT,PARK AVE SOUTH,42.8513965,-78.82543545
ACER PLATANOIDES,PARK AVE SOUTH,42.85139753,-78.82489704
PLATANUS X ACERIFOLIA,PARK AVE SOUTH,42.85141134,-78.82512774
VACANT,PARK AVE SOUTH,42.85141773,-78.82536887
PLATANUS X ACERIFOLIA,PARK AVE SOUTH,42.85144125,-78.82494942
VACANT,PARK AVE SOUTH,42.85145238,-78.8255275
VACANT,PARK AVE SOUTH,42.85145652,-78.82527346
VACANT,PARK AVE SOUTH,42.851482700000005,-78.82546515
VACANT,PARK AVE SOUTH,42.85150393,-78.82539857
PLATANUS X ACERIFOLIA,PARK AVE SOUTH,42.85151453,-78.82500797
VACANT,PARK AVE SOUTH,42.85152532,-78.82534132
ACER PLATANOIDES,PARK AVE SOUTH,42.85159194,-78.82505909
SYRINGA RETICULATA 'IVORY SILK',PARK AVE SOUTH,42.85163073,-78.82528398
VACANT,PARK AVE SOUTH,42.85165613,-78.82511388
PLATANUS X ACERIFOLIA,PARK AVE SOUTH,42.8517199,-78.82535474
PLATANUS X ACERIFOLIA,PARK AVE SOUTH,42.85173354,-78.82516546
ACER PLATANOIDES,PARK AVE SOUTH,42.85180218,-78.82522353
PLATANUS X ACERIFOLIA,PARK AVE SOUTH,42.85182158,-78.82542555
VACANT,PARK AVE SOUTH,42.85187068,-78.82527181
VACANT,PARK AVE SOUTH,42.8519609,-78.82599518
SYRINGA RETICULATA 'IVORY SILK',PARK AVE SOUTH,42.85197935,-78.82554401
VACANT,PARK AVE SOUTH,42.85201432,-78.82595577
GINKGO BILOBA 'AUTUMN GOLD',PARK AVE SOUTH,42.85205708,-78.82560258
VACANT,PARK AVE SOUTH,42.85206495,-78.82601517
ACER X FREEMANII,PARK AVE SOUTH,42.85207017,-78.82581707
VACANT,PARK AVE SOUTH,42.85207788,-78.82598492
SYRINGA RETICULATA 'IVORY SILK',PARK AVE SOUTH,42.852086,-78.82540716
VACANT,PARK AVE SOUTH,42.85209095,-78.82596679
VACANT,PARK AVE SOUTH,42.85210033,-78.82575006
VACANT,PARK AVE SOUTH,42.85210788,-78.82590998
VACANT,PARK AVE SOUTH,42.85212463,-78.82512596
PLATANUS X ACERIFOLIA,PARK AVE SOUTH,42.85216448,-78.82546574
VACANT,PARK AVE SOUTH,42.85227282,-78.82576479999999
PLATANUS X ACERIFOLIA,PARK AVE SOUTH,42.8523036,-78.82557068
PLATANUS X ACERIFOLIA,PARK AVE SOUTH,42.8523586,-78.82582892
PLATANUS X ACERIFOLIA,PARK AVE SOUTH,42.85236844,-78.82563503
GYMNOCLADUS DIOICUS,PARK AVE SOUTH,42.85242442,-78.8258795
QUERCUS RUBRA,PARK AVE SOUTH,42.85245385,-78.82563892
VACANT,PARK AVE SOUTH,42.85245701,-78.82567325
VACANT,PARK AVE SOUTH,42.85250066,-78.82571963
GYMNOCLADUS DIOICUS,PARK AVE SOUTH,42.8525027,-78.82593559
VACANT,PARK AVE SOUTH,42.85255795,-78.82684641
VACANT,PARK AVE SOUTH,42.85256716,-78.82662408
VACANT,PARK AVE SOUTH,42.85257471,-78.8257684
VACANT,PARK AVE SOUTH,42.85258796,-78.82676495
VACANT,PARK AVE SOUTH,42.85259734,-78.82654822
VACANT,PARK AVE SOUTH,42.85260354,-78.82529511
GINKGO BILOBA 'AUTUMN GOLD',PARK AVE SOUTH,42.85260992,-78.82601376
VACANT,PARK AVE SOUTH,42.85263088,-78.82580914
VACANT,PARK AVE SOUTH,42.85264026,-78.82644256
GYMNOCLADUS DIOICUS,PARK AVE SOUTH,42.85265807,-78.8260528
VACANT,PARK AVE SOUTH,42.85267816,-78.8258465
GLEDITSIA TRIACANTHOS,PARK AVE SOUTH,42.85272538,-78.82587703
UNKNOWN TREE,PARK AVE SOUTH,42.85277098,-78.82586856
VACANT,PARK AVE SOUTH,42.8528245,-78.82595381
VACANT,PARK AVE SOUTH,42.85289575,-78.82601003
SYRINGA RETICULATA 'IVORY SILK',PARK AVE SOUTH,42.85291312,-78.82624318
STUMP,PARK AVE SOUTH,42.85293731,-78.82592764
VACANT,PARK AVE SOUTH,42.85296472,-78.82605637
SYRINGA RETICULATA 'IVORY SILK',PARK AVE SOUTH,42.85298803,-78.82629689
GLEDITSIA TRIACANTHOS INERMIS 'SUNBURST',PARK AVE SOUTH,42.853043799999995,-78.82611258
ACER PLATANOIDES,PARK AVE SOUTH,42.85310213,-78.82615259
PLATANUS X ACERIFOLIA,PARK AVE SOUTH,42.85312895,-78.82639699
VACANT,PARK AVE SOUTH,42.8532627,-78.82696945
VACANT,PARK AVE SOUTH,42.85329254,-78.82688566
PLATANUS X ACERIFOLIA,PARK AVE SOUTH,42.85330551,-78.82653122
VACANT,PARK AVE SOUTH,42.853322399999996,-78.8267972
VACANT,PARK AVE SOUTH,42.85337827,-78.82689345
ACER PSEUDOPLATANUS 'SPAETHII',PARK AVE SOUTH,42.85346579,-78.82506762
VACANT,PARK AVE SOUTH,42.85358942,-78.82672902
PLATANUS X ACERIFOLIA,PARK AVE SOUTH,42.85365107,-78.82678371
VACANT,PARK AVE SOUTH,42.85365835,-78.82623258
GLEDITSIA TRIACANTHOS INERMIS 'SUNBURST',PARK AVE SOUTH,42.85368589,-78.82659098
GLEDITSIA TRIACANTHOS INERMIS 'SUNBURST',PARK AVE SOUTH,42.85374652,-78.82663978
PLATANUS X ACERIFOLIA,PARK AVE SOUTH,42.85379343,-78.82688197
GLEDITSIA TRIACANTHOS INERMIS 'SUNBURST',PARK AVE SOUTH,42.85380894,-78.82668859
PLATANUS X ACERIFOLIA,PARK AVE SOUTH,42.85386369,-78.82693399
GLEDITSIA TRIACANTHOS INERMIS 'SUNBURST',PARK AVE SOUTH,42.85387318,-78.82672283
VACANT,PARK AVE SOUTH,42.85388758,-78.82739193
PLATANUS X ACERIFOLIA,PARK AVE SOUTH,42.85395219,-78.82700759
PRUNUS SARGENTII,PARK AVE SOUTH,42.85397792,-78.82741
VACANT,PARK AVE SOUTH,42.85401639,-78.82730059999999
GLEDITSIA TRIACANTHOS INERMIS 'SUNBURST',PARK AVE SOUTH,42.85403726,-78.82684973
GYMNOCLADUS DIOICUS,PARK AVE SOUTH,42.85410858,-78.82691314
PLATANUS X ACERIFOLIA,PARK AVE SOUTH,42.854136100000005,-78.8271342
PLATANUS X ACERIFOLIA,PARK AVE SOUTH,42.85424448,-78.82721992
VACANT,PARK AVE SOUTH,42.85430968,-78.82727247
VACANT,PARK AVE SOUTH,42.85434556,-78.82661987
VACANT,PARK AVE SOUTH,42.85435405,-78.8268241
GLEDITSIA TRIACANTHOS INERMIS 'SUNBURST',PARK AVE SOUTH,42.85437081,-78.82731594
PLATANUS X ACERIFOLIA,PARK AVE SOUTH,42.85441005,-78.82711585
GYMNOCLADUS DIOICUS,PARK AVE SOUTH,42.85441611,-78.82734965
PLATANUS X ACERIFOLIA,PARK AVE SOUTH,42.85448674,-78.82717443
PLATANUS X ACERIFOLIA,PARK AVE SOUTH,42.8544955,-78.82740178
VACANT,PARK AVE SOUTH,42.8545423,-78.82773296
VACANT,PARK AVE SOUTH,42.85455475,-78.82744257
STUMP,PARK AVE SOUTH,42.85470432,-78.82734039
QUERCUS BICOLOR,PARK AVE SOUTH,42.85483228,-78.82765411
PLATANUS X ACERIFOLIA,PARK AVE SOUTH,42.85484166,-78.82744291
VACANT,PARK AVE SOUTH,42.85486231,-78.82917379
VACANT,PARK AVE SOUTH,42.85490362,-78.82770781
VACANT,PARK AVE SOUTH,42.85494327,-78.82916619
SYRINGA RETICULATA 'IVORY SILK',PARK AVE SOUTH,42.85499101,-78.82777128
VACANT,PARK AVE SOUTH,42.85500637,-78.82916829999999
VACANT,PARK AVE SOUTH,42.85507377,-78.82916624
QUERCUS ROBUR,PARK AVE SOUTH,42.85507543,-78.82783063
QUERCUS BICOLOR,PARK AVE SOUTH,42.85508423,-78.82762111
QUERCUS ROBUR,PARK AVE SOUTH,42.85515301,-78.82788128
VACANT,PARK AVE SOUTH,42.85516828,-78.82916289
GLEDITSIA TRIACANTHOS INERMIS 'SKYLINE',PARK AVE SOUTH,42.85519656,-78.82771868
QUERCUS ROBUR,PARK AVE SOUTH,42.85523521,-78.82793941
QUERCUS ROBUR,PARK AVE SOUTH,42.85525721,-78.82776262
VACANT,PARK AVE SOUTH,42.85527169,-78.82915909999998
QUERCUS ROBUR,PARK AVE SOUTH,42.8553232,-78.82780901
QUERCUS ROBUR,PARK AVE SOUTH,42.85532417,-78.82801859
QUERCUS ROBUR,PARK AVE SOUTH,42.85538142,-78.82805327
QUERCUS ROBUR,PARK AVE SOUTH,42.85538741,-78.8278554
VACANT,PARK AVE SOUTH,42.85542131,-78.82896716
QUERCUS ROBUR,PARK AVE SOUTH,42.85547698,-78.82811379
QUERCUS ROBUR,PARK AVE SOUTH,42.85549444,-78.82793109
ACER PLATANOIDES,PARK AVE SOUTH,42.85549855,-78.82877353
QUERCUS ROBUR,PARK AVE SOUTH,42.85553672,-78.82816903
SYRINGA RETICULATA 'IVORY SILK',PARK AVE SOUTH,42.85555865,-78.82797748
VACANT,PARK AVE SOUTH,42.85555872,-78.82862272
QUERCUS ROBUR,PARK AVE SOUTH,42.85559207,-78.82821799
ACER PLATANOIDES,PARK AVE SOUTH,42.85561459,-78.82848029
QUERCUS ROBUR,PARK AVE SOUTH,42.855638899999995,-78.8280385
PYRUS CALLERYANA,PARK AVE SOUTH,42.85588029,-78.82802401
VACANT,PARK AVE SOUTH,42.85593799,-78.82847139
SYRINGA RETICULATA 'IVORY SILK',PARK AVE SOUTH,42.85594033,-78.82826064
QUERCUS BICOLOR,PARK AVE SOUTH,42.85598624,-78.82851092
SYRINGA RETICULATA 'IVORY SILK',PARK AVE SOUTH,42.85600453,-78.82831189
GLEDITSIA TRIACANTHOS INERMIS 'SUNBURST',PARK AVE SOUTH,42.85605581,-78.82855490000001
VACANT,PARK AVE SOUTH,42.85607588,-78.82836073
GLEDITSIA TRIACANTHOS INERMIS 'SUNBURST',PARK AVE SOUTH,42.85612256,-78.82860708
ACER RUBRUM,PARK AVE SOUTH,42.8561896,-78.82864527
QUERCUS BICOLOR,PARK AVE SOUTH,42.85625021,-78.82870378
VACANT,PARK AVE SOUTH,42.85631026,-78.8287507
ACER SACCHARINUM,PARK AVE SOUTH,42.85636382,-78.82934912
PLATANUS X ACERIFOLIA 'BLOODGOOD',PARK AVE SOUTH,42.85638494,-78.82858771
FRAXINUS PENNSYLVANICA,PARK AVE SOUTH,42.85641218,-78.82928861
STYPHNOLOBIUM JAPONICUM 'REGENT',PARK AVE SOUTH,42.8564223,-78.82881309
PLATANUS X ACERIFOLIA 'BLOODGOOD',PARK AVE SOUTH,42.85644202,-78.82862678
GINKGO BILOBA 'MAGYAR',PARK AVE SOUTH,42.85647726,-78.82885759
QUERCUS BICOLOR,PARK AVE SOUTH,42.85653833,-78.82870001
QUERCUS BICOLOR,PARK AVE SOUTH,42.85659184,-78.82873664
QUERCUS BICOLOR,PARK AVE SOUTH,42.856640000000006,-78.82877083
QUERCUS BICOLOR,PARK AVE SOUTH,42.85668768,-78.82903082
QUERCUS BICOLOR,PARK AVE SOUTH,42.85674119,-78.82906988
QUERCUS BICOLOR,PARK AVE SOUTH,42.85679647,-78.82911381
SYRINGA RETICULATA 'IVORY SILK',PARK AVE SOUTH,42.85680587,-78.82889532
VACANT,PARK AVE SOUTH,42.85718217,-78.83089302
ACER SACCHARINUM,PARK AVE SOUTH,42.85726774,-78.83089383
VACANT,PARK AVE SOUTH,42.85733054,-78.83111879
ACER PLATANOIDES 'CRIMSON KING',PARK AVE SOUTH,42.85734424,-78.83089134
VACANT,PARK AVE SOUTH,42.85736747,-78.82974038
VACANT,PARK AVE SOUTH,42.85740532,-78.82984123
ACER PLATANOIDES 'CRIMSON KING',PARK AVE SOUTH,42.85741595,-78.83111587
VACANT,PARK AVE SOUTH,42.85743426,-78.82994158
ACER PLATANOIDES 'CRIMSON KING',PARK AVE SOUTH,42.85743874,-78.83088799
VACANT,PARK AVE SOUTH,42.85747674,-78.83004664
ACER PLATANOIDES 'CRIMSON KING',PARK AVE SOUTH,42.85750137,-78.83110968
VACANT,PARK AVE SOUTH,42.85752999,-78.83024499
VACANT,PARK AVE SOUTH,42.85753213,-78.82940676
VACANT,PARK AVE SOUTH,42.8575634,-78.83033883
ACER SACCHARINUM,PARK AVE SOUTH,42.85756894,-78.83110762
VACANT,PARK AVE SOUTH,42.85758569,-78.82938273
VACANT,PARK AVE SOUTH,42.85759233,-78.83043964
VACANT,PARK AVE SOUTH,42.85761634,-78.83051899
VACANT,PARK AVE SOUTH,42.8576391,-78.82934798
VACANT,PARK AVE SOUTH,42.8576405,-78.83060907
VACANT,PARK AVE SOUTH,42.85768391,-78.83123256
VACANT,PARK AVE SOUTH,42.85772192,-78.83133994
VACANT,PARK AVE SOUTH,42.857798100000004,-78.83108476
VACANT,PARK AVE SOUTH,42.85783119,-78.83116788
ACER PLATANOIDES 'CRIMSON KING',PARK AVE SOUTH,42.85802866,-78.83137194
VACANT,PARK AVE SOUTH,42.85803602,-78.83342421
VACANT,PARK AVE SOUTH,42.85807637,-78.83151292
VACANT,PARK AVE SOUTH,42.85809545,-78.83133304
VACANT,PARK AVE SOUTH,42.85811252,-78.83341799
ACER PLATANOIDES 'CRIMSON KING',PARK AVE SOUTH,42.85816672,-78.83128717
VACANT,PARK AVE SOUTH,42.85822828,-78.83144919
VACANT,PARK AVE SOUTH,42.85822888,-78.83124873
VACANT,PARK AVE SOUTH,42.85824135,-78.8314306
STUMP,PARK AVE SOUTH,42.85824427,-78.83348053
STUMP,PARK AVE SOUTH,42.85828427,-78.83345831
STUMP,PARK AVE SOUTH,42.85831536,-78.83343606
VACANT,PARK AVE SOUTH,42.85855189,-78.834748
VACANT,PARK AVE SOUTH,42.86624564,-78.84878689
VACANT,PARK AVE SOUTH,42.86625673,-78.84866431
MAGNOLIA SOULANGIANA,PARK AVE SOUTH,42.86631676,-78.84873637
VACANT,PARK AVE SOUTH,42.86685059,-78.84997408
VACANT,PARK AVE SOUTH,42.86695981,-78.84985318
VACANT,PARK AVE SOUTH,42.86703706,-78.84992151
PRUNUS SUBHIRTELLA 'AUTUMNALIS',PARK AVE SOUTH,42.86704578,-78.84975965
PRUNUS SUBHIRTELLA 'AUTUMNALIS',PARK AVE SOUTH,42.8670908,-78.84986184
PRUNUS SUBHIRTELLA 'AUTUMNALIS',PARK AVE SOUTH,42.8673977,-78.85064977
PRUNUS SUBHIRTELLA 'AUTUMNALIS',PARK AVE SOUTH,42.86747531,-78.85056429
SYRINGA RETICULATA 'IVORY SILK',PARK AVE SOUTH,42.86750724,-78.85066319
VACANT,PARK AVE SOUTH,42.86753858,-78.85050142
QUERCUS BICOLOR,PARK AVE SOUTH,42.86753925,-78.85080477
UNKNOWN TREE,PARK AVE SOUTH,42.8677356,-78.85029328
PRUNUS 'OKAME',PARK AVE SOUTH,42.86776629,-78.85093512
PRUNUS SERRULATA 'KWANZAN',PARK AVE SOUTH,42.86776645,-78.85086798
VACANT,PARK AVE SOUTH,42.86779476,-78.84960847
SYRINGA RETICULATA 'IVORY SILK',PARK AVE SOUTH,42.86779546,-78.85090179
ACER NEGUNDO,PARK AVE SOUTH,42.8704015,-78.85624756
TILIA CORDATA,PARK AVE SOUTH,42.87041366,-78.85857096
TILIA AMERICANA,PARK AVE SOUTH,42.8704406,-78.85856361
TILIA CORDATA,PARK AVE SOUTH,42.87072864,-78.86072621
VACANT,PARK AVE SOUTH,42.87089888,-78.86067661
VACANT,PARK AVE SOUTH,42.87091009,-78.8607923
VACANT,PARK AVE SOUTH,42.87103232,-78.85818061
VACANT,PARK AVE SOUTH,42.87123839,-78.86110097
VACANT,PARK AVE SOUTH,42.87126582,-78.86055841
TILIA CORDATA,PARK AVE SOUTH,42.87134161,-78.86045962
VACANT,PARK AVE SOUTH,42.87137757,-78.86051182
VACANT,PARK AVE SOUTH,42.8714847,-78.86046426
PLATANUS X ACERIFOLIA 'BLOODGOOD',PARK AVE SOUTH,42.87166964,-78.86309161
TILIA CORDATA,PARK AVE SOUTH,42.87168465,-78.86294673
VACANT,PARK AVE SOUTH,42.87175259,-78.86292275
PLATANUS X ACERIFOLIA 'BLOODGOOD',PARK AVE SOUTH,42.87177449,-78.86306942
TILIA CORDATA,PARK AVE SOUTH,42.87185746,-78.86289246
PLATANUS X ACERIFOLIA 'BLOODGOOD',PARK AVE SOUTH,42.8719148,-78.86300433
PLATANUS X ACERIFOLIA 'BLOODGOOD',PARK AVE SOUTH,42.87200439,-78.86297675
AMELANCHIER X GRANDIFLORA 'ROBIN HILL',PARK AVE SOUTH,42.87227359,-78.86292387
AMELANCHIER X GRANDIFLORA 'ROBIN HILL',PARK AVE SOUTH,42.87235158,-78.86288772
VACANT,PARK AVE SOUTH,42.87245122,-78.86293947
ACER PSEUDOPLATANUS,PARK AVE SOUTH,42.87248811,-78.86246652
AMELANCHIER X GRANDIFLORA 'ROBIN HILL',PARK AVE SOUTH,42.87255595,-78.86355608
AMELANCHIER X GRANDIFLORA 'ROBIN HILL',PARK AVE SOUTH,42.872572399999996,-78.86364682
PRUNUS SARGENTII 'ACCOLADE',PARK AVE SOUTH,42.87258765,-78.86374079999999
PRUNUS SARGENTII 'ACCOLADE',PARK AVE SOUTH,42.87260624,-78.86383071
PRUNUS SARGENTII 'ACCOLADE',PARK AVE SOUTH,42.87263438,-78.86401218
VACANT,PARK AVE SOUTH,42.87264804,-78.86803967
VACANT,PARK AVE SOUTH,42.87265203,-78.86409808
QUERCUS BICOLOR,PARK AVE SOUTH,42.872724,-78.86566817
VACANT,PARK AVE SOUTH,42.87283348,-78.86445529
VACANT,PARK AVE SOUTH,42.87283441,-78.87175616
VACANT,PARK AVE SOUTH,42.87286882,-78.86467065
VACANT,PARK AVE SOUTH,42.87288749,-78.86480272
VACANT,PARK AVE SOUTH,42.87293944,-78.86585905
VACANT,PARK AVE SOUTH,42.87295956,-78.86596814
VACANT,PARK AVE SOUTH,42.87298235,-78.86609388
VACANT,PARK AVE SOUTH,42.87303524,-78.86641282
VACANT,PARK AVE SOUTH,42.87307137,-78.86663654
VACANT,PARK AVE SOUTH,42.87310086,-78.86679925
VACANT,PARK AVE SOUTH,42.87311561,-78.86688246
TILIA CORDATA,PARK AVE SOUTH,42.87313357,-78.87218019
VACANT,PARK AVE SOUTH,42.87313441,-78.86697308
FRAXINUS NIGRA,PARK AVE SOUTH,42.87316345,-78.87232349
VACANT,PARK AVE SOUTH,42.873191999999996,-78.86731329
FRAXINUS NIGRA,PARK AVE SOUTH,42.87321139,-78.87260351
VACANT,PARK AVE SOUTH,42.87321209,-78.86743162
TILIA CORDATA,PARK AVE SOUTH,42.87328782,-78.87303366
FRAXINUS NIGRA,PARK AVE SOUTH,42.87330823,-78.87316899
FRAXINUS NIGRA,PARK AVE SOUTH,42.87332805,-78.87326328
GLEDITSIA TRIACANTHOS,PARK AVE SOUTH,42.87338975,-78.87359848
GLEDITSIA TRIACANTHOS,PARK AVE SOUTH,42.87341324,-78.87372079
FRAXINUS NIGRA,PARK AVE SOUTH,42.8734521,-78.87397374
FRAXINUS NIGRA,PARK AVE SOUTH,42.87347282,-78.87409215
GLEDITSIA TRIACANTHOS,PARK AVE SOUTH,42.87350377,-78.87167953
VACANT,PARK AVE SOUTH,42.87355951,-78.87463039
GLEDITSIA TRIACANTHOS,PARK AVE SOUTH,42.87363903,-78.87505926
GLEDITSIA TRIACANTHOS,PARK AVE SOUTH,42.87367829,-78.8743247
GLEDITSIA TRIACANTHOS,PARK AVE SOUTH,42.87377508,-78.87429262
